{"type":"FeatureCollection","features":[{"type":"Feature","properties":{"state":"Andaman and Nicobar Islands","bbox":[92.3779,6.7664,93.9148,13.5742]},"geometry":{"type":"MultiPolygon","coordinates":[[[[92.792,9.238],[92.826,9.141],[92.728,9.127],[92.72,9.219],[92.792,9.238]]],[[[92.433,10.551],[92.384,10.671],[92.378,10.782],[92.52,10.898],[92.586,10.788],[92.597,10.682],[92.531,10.521],[92.433,10.551]]],[[[92.639,11.511],[92.69,11.375],[92.598,11.347],[92.586,11.401],[92.639,11.511]]],[[[92.707,11.974],[92.791,11.886],[92.754,11.702],[92.661,11.654],[92.751,11.61],[92.665,11.505],[92.551,11.72],[92.535,11.912],[92.601,11.849],[92.623,12.102],[92.661,12.215],[92.756,12.177],[92.734,12.084],[92.782,12.048],[92.707,11.974]]],[[[93.8,6.766],[93.718,6.992],[93.667,7.023],[93.646,7.127],[93.675,7.191],[93.837,7.241],[93.869,7.205],[93.915,6.949],[93.878,6.794],[93.8,6.766]]],[[[93.609,7.312],[93.701,7.446],[93.744,7.377],[93.713,7.312],[93.636,7.245],[93.609,7.312]]],[[[92.811,12.314],[92.832,12.301],[92.872,12.303],[92.855,12.16],[92.769,12.183],[92.74,12.246],[92.811,12.314]]],[[[92.719,12.3],[92.699,12.329],[92.745,12.723],[92.73,12.836],[92.794,12.862],[92.788,13.02],[92.821,13.112],[92.841,13.391],[92.87,13.472],[92.933,13.499],[92.988,13.574],[93.043,13.529],[93.031,13.345],[93.065,13.273],[93.031,13.178],[93.034,13.082],[92.959,13.016],[92.912,13.054],[92.858,12.902],[92.924,12.884],[92.968,12.74],[92.956,12.624],[92.974,12.543],[92.873,12.331],[92.831,12.303],[92.809,12.316],[92.719,12.3]]]]}},{"type":"Feature","properties":{"state":"Andhra Pradesh","bbox":[76.7603,12.627,84.7641,19.1185]},"geometry":{"type":"Polygon","coordinates":[[[79.163,13.02],[78.994,13.086],[78.892,13.096],[78.751,13.054],[78.621,12.991],[78.592,12.782],[78.412,12.627],[78.302,12.665],[78.231,12.76],[78.253,12.861],[78.312,12.859],[78.355,12.94],[78.467,12.975],[78.586,13.276],[78.444,13.309],[78.364,13.362],[78.401,13.588],[78.196,13.569],[78.204,13.629],[78.121,13.716],[78.115,13.863],[78.001,13.872],[77.97,13.959],[77.814,13.915],[77.782,13.819],[77.456,13.683],[77.47,13.758],[77.433,13.844],[77.326,13.834],[77.181,13.87],[77.158,13.806],[77.065,13.743],[76.977,13.827],[77.042,13.933],[76.932,14.031],[76.948,14.095],[76.895,14.168],[77.003,14.198],[77.028,14.062],[77.173,14.013],[77.322,14.031],[77.398,13.907],[77.435,13.948],[77.39,14.017],[77.393,14.175],[77.504,14.157],[77.479,14.292],[77.409,14.337],[77.364,14.275],[77.138,14.337],[77.117,14.226],[77.005,14.235],[76.884,14.348],[76.901,14.49],[76.806,14.531],[76.765,14.602],[76.776,14.681],[76.837,14.791],[76.867,14.97],[76.76,14.989],[76.8,15.096],[76.985,15.015],[77.114,15.034],[77.156,15.14],[77.126,15.227],[77.152,15.293],[77.063,15.328],[77.033,15.436],[77.031,15.635],[77.083,15.66],[77.026,15.837],[77.072,15.91],[77.248,15.965],[77.66,15.885],[77.803,15.874],[77.887,15.906],[78.083,15.841],[78.175,15.858],[78.256,16.009],[78.41,16.075],[78.551,16.043],[78.601,16.084],[78.741,16.009],[78.923,16.123],[78.904,16.183],[79.03,16.241],[79.158,16.21],[79.215,16.226],[79.219,16.512],[79.258,16.566],[79.418,16.581],[79.447,16.619],[79.793,16.725],[79.877,16.698],[79.949,16.636],[80.056,16.744],[80.073,16.817],[80.039,16.918],[80.056,16.971],[80.187,17.021],[80.307,16.974],[80.322,16.879],[80.57,16.768],[80.563,16.832],[80.602,16.919],[80.534,16.962],[80.363,16.977],[80.505,17.069],[80.58,17.153],[80.7,17.084],[80.845,17.04],[80.877,17.07],[80.88,17.161],[80.941,17.219],[80.995,17.191],[81.174,17.231],[81.19,17.324],[81.275,17.318],[81.31,17.41],[81.021,17.52],[80.911,17.638],[80.886,17.736],[80.973,17.78],[81.059,17.733],[81.085,17.797],[81.166,17.858],[81.265,17.811],[81.617,17.824],[81.81,17.957],[81.979,18.013],[82.031,18.07],[82.168,18.053],[82.25,17.993],[82.319,18.045],[82.351,18.173],[82.314,18.185],[82.383,18.368],[82.362,18.422],[82.486,18.529],[82.606,18.367],[82.587,18.277],[82.773,18.342],[82.807,18.452],[82.894,18.382],[82.969,18.361],[83.077,18.404],[83.019,18.457],[83.044,18.545],[82.999,18.609],[83.136,18.786],[83.204,18.753],[83.412,18.874],[83.317,18.974],[83.348,19.018],[83.46,18.956],[83.481,19.035],[83.608,19.097],[83.663,19.099],[83.756,18.911],[83.747,18.993],[83.793,19.018],[83.891,18.816],[84.036,18.817],[84.09,18.758],[84.224,18.8],[84.319,18.789],[84.515,19.05],[84.591,19.024],[84.623,19.086],[84.701,19.119],[84.764,19.075],[84.354,18.555],[84.148,18.373],[84.128,18.313],[83.663,18.079],[83.42,17.857],[83.347,17.726],[83.162,17.56],[83.021,17.507],[82.992,17.473],[82.542,17.249],[82.319,17.058],[82.249,16.935],[82.249,16.876],[82.362,16.856],[82.314,16.559],[82.233,16.542],[81.957,16.397],[81.715,16.311],[81.553,16.347],[81.392,16.343],[81.265,16.278],[81.213,16.208],[81.148,15.974],[81.015,15.851],[81.008,15.755],[80.938,15.716],[80.831,15.706],[80.774,15.867],[80.68,15.885],[80.536,15.852],[80.316,15.723],[80.251,15.634],[80.206,15.474],[80.123,15.368],[80.04,15.009],[80.109,14.739],[80.196,14.586],[80.169,14.351],[80.131,14.229],[80.146,14.042],[80.255,13.783],[80.233,13.657],[80.268,13.565],[80.215,13.49],[80.079,13.489],[80.037,13.538],[79.946,13.364],[79.81,13.317],[79.794,13.24],[79.703,13.222],[79.683,13.296],[79.534,13.276],[79.537,13.339],[79.406,13.335],[79.438,13.188],[79.284,13.123],[79.228,13.158],[79.235,13.105],[79.163,13.02]],[[82.267,16.695],[82.27,16.722],[82.186,16.737],[82.2,16.721],[82.267,16.695]]]}},{"type":"Feature","properties":{"state":"Arunachal Pradesh","bbox":[91.5598,26.6508,97.3876,29.4594]},"geometry":{"type":"Polygon","coordinates":[[[92.673,27.032],[92.563,26.957],[92.447,26.959],[92.194,26.89],[92.113,26.893],[92.104,27.007],[92.034,27.065],[92.025,27.162],[92.071,27.276],[92.055,27.4],[92.014,27.489],[91.941,27.461],[91.655,27.483],[91.564,27.584],[91.56,27.634],[91.626,27.705],[91.63,27.801],[91.826,27.81],[91.881,27.722],[91.986,27.77],[92.057,27.759],[92.158,27.837],[92.257,27.862],[92.309,27.779],[92.561,27.821],[92.734,27.976],[92.662,28.067],[92.688,28.126],[92.802,28.202],[92.896,28.204],[93.025,28.303],[93.224,28.342],[93.182,28.433],[93.279,28.504],[93.34,28.64],[93.493,28.684],[93.623,28.657],[93.962,28.713],[93.997,28.841],[94.158,28.955],[94.187,29.039],[94.291,29.147],[94.36,29.153],[94.433,29.227],[94.56,29.228],[94.58,29.281],[94.679,29.327],[94.874,29.183],[95.253,29.109],[95.27,29.05],[95.455,29.035],[95.539,29.212],[95.588,29.216],[95.883,29.389],[95.958,29.381],[96.089,29.459],[96.176,29.362],[96.244,29.233],[96.394,29.253],[96.346,29.168],[96.218,29.135],[96.15,29.05],[96.248,28.94],[96.346,29.029],[96.436,29.035],[96.519,28.967],[96.537,28.881],[96.608,28.794],[96.585,28.717],[96.472,28.684],[96.493,28.633],[96.326,28.511],[96.372,28.482],[96.314,28.383],[96.508,28.413],[96.579,28.457],[96.663,28.46],[96.78,28.364],[96.897,28.38],[96.995,28.31],[97.089,28.362],[97.17,28.292],[97.221,28.292],[97.371,28.218],[97.328,28.155],[97.328,28.057],[97.388,28.004],[97.375,27.909],[97.253,27.9],[97.157,27.814],[97.031,27.749],[96.903,27.613],[96.862,27.631],[96.935,27.509],[96.903,27.452],[97.164,27.142],[97.063,27.092],[96.984,27.154],[96.86,27.19],[96.884,27.26],[96.797,27.346],[96.606,27.366],[96.508,27.298],[96.306,27.294],[96.089,27.223],[96.022,27.18],[95.946,27.051],[95.802,27.015],[95.745,26.896],[95.684,26.904],[95.608,26.813],[95.496,26.817],[95.427,26.698],[95.303,26.651],[95.234,26.682],[95.202,26.846],[95.23,26.923],[95.196,27.034],[95.259,27.03],[95.369,27.11],[95.377,27.096],[95.449,27.132],[95.484,27.242],[95.534,27.264],[95.634,27.231],[95.742,27.267],[95.857,27.271],[95.959,27.311],[96.016,27.368],[95.941,27.437],[95.883,27.436],[95.874,27.544],[95.78,27.621],[95.774,27.733],[95.97,27.96],[95.819,27.972],[95.606,27.955],[95.514,27.88],[95.38,27.839],[95.309,27.867],[95.137,27.815],[94.852,27.727],[94.462,27.555],[94.237,27.632],[94.213,27.606],[94.266,27.52],[93.991,27.329],[93.806,27.148],[93.829,27.067],[93.666,26.968],[93.022,26.913],[92.887,27.0],[92.673,27.032]]]}},{"type":"Feature","properties":{"state":"Assam","bbox":[89.7003,24.1543,96.0159,27.9596]},"geometry":{"type":"Polygon","coordinates":[[[92.532,24.178],[92.436,24.154],[92.422,24.25],[92.295,24.245],[92.219,24.286],[92.26,24.359],[92.214,24.509],[92.254,24.678],[92.295,24.737],[92.234,24.899],[92.298,24.916],[92.386,24.851],[92.516,24.88],[92.425,25.03],[92.48,25.108],[92.621,25.115],[92.664,25.177],[92.743,25.207],[92.792,25.283],[92.653,25.434],[92.569,25.466],[92.661,25.572],[92.584,25.551],[92.505,25.617],[92.444,25.72],[92.225,25.716],[92.152,25.672],[92.152,25.816],[92.202,25.907],[92.164,25.97],[92.274,26.065],[92.173,26.076],[92.133,26.045],[91.867,26.042],[91.826,26.119],[91.723,26.035],[91.722,25.966],[91.58,26.034],[91.445,25.84],[91.335,25.841],[91.222,25.723],[91.147,25.851],[91.008,25.825],[91.026,25.886],[90.948,25.948],[90.717,25.955],[90.632,25.919],[90.434,25.991],[90.187,25.944],[90.122,25.959],[89.899,25.727],[90.02,25.607],[89.878,25.55],[89.872,25.477],[89.852,25.466],[89.882,25.617],[89.827,25.732],[89.843,25.882],[89.887,25.946],[89.7,26.218],[89.781,26.352],[89.843,26.383],[89.87,26.614],[89.859,26.735],[90.049,26.731],[90.194,26.773],[90.231,26.858],[90.336,26.863],[90.418,26.905],[90.546,26.817],[90.717,26.769],[91.054,26.781],[91.098,26.823],[91.337,26.78],[91.408,26.841],[91.496,26.791],[91.626,26.821],[91.704,26.813],[91.893,26.919],[91.983,26.858],[92.057,26.846],[92.113,26.893],[92.194,26.89],[92.447,26.959],[92.563,26.957],[92.673,27.032],[92.887,27.0],[93.022,26.913],[93.666,26.968],[93.829,27.067],[93.806,27.148],[93.991,27.329],[94.266,27.52],[94.213,27.606],[94.237,27.632],[94.462,27.555],[94.852,27.727],[95.137,27.815],[95.309,27.867],[95.38,27.839],[95.514,27.88],[95.606,27.955],[95.97,27.96],[95.774,27.733],[95.78,27.621],[95.874,27.544],[95.883,27.436],[95.941,27.437],[96.016,27.368],[95.959,27.311],[95.857,27.271],[95.742,27.267],[95.634,27.231],[95.534,27.264],[95.484,27.242],[95.449,27.132],[95.377,27.096],[95.369,27.11],[95.259,27.03],[95.196,27.034],[95.101,26.962],[94.982,26.913],[94.924,26.949],[94.736,26.75],[94.586,26.725],[94.403,26.611],[94.401,26.534],[94.314,26.461],[94.285,26.561],[94.184,26.456],[94.164,26.351],[94.104,26.32],[94.0,26.172],[93.955,25.969],[93.979,25.917],[93.881,25.844],[93.777,25.849],[93.776,25.969],[93.681,25.904],[93.702,25.852],[93.543,25.731],[93.513,25.675],[93.427,25.632],[93.329,25.543],[93.456,25.434],[93.47,25.306],[93.381,25.24],[93.344,25.123],[93.247,24.972],[93.248,24.915],[93.175,24.798],[93.109,24.811],[93.087,24.572],[93.049,24.545],[93.009,24.413],[92.896,24.391],[92.8,24.42],[92.762,24.513],[92.69,24.354],[92.626,24.332],[92.612,24.256],[92.551,24.248],[92.532,24.178]]]}},{"type":"Feature","properties":{"state":"Bihar","bbox":[83.3496,24.2876,88.2797,27.5169]},"geometry":{"type":"Polygon","coordinates":[[[85.029,24.415],[84.903,24.373],[84.888,24.464],[84.802,24.531],[84.585,24.4],[84.497,24.288],[84.46,24.337],[84.342,24.393],[84.327,24.49],[84.256,24.527],[84.093,24.534],[84.009,24.642],[83.937,24.549],[83.873,24.532],[83.718,24.503],[83.503,24.525],[83.524,24.55],[83.53,24.644],[83.489,24.736],[83.395,24.781],[83.351,25.009],[83.35,25.184],[83.538,25.309],[83.649,25.339],[83.741,25.411],[83.779,25.398],[83.847,25.434],[83.931,25.558],[84.081,25.636],[84.074,25.695],[84.14,25.731],[84.206,25.669],[84.319,25.668],[84.336,25.743],[84.558,25.68],[84.625,25.792],[84.354,25.959],[84.296,25.946],[84.056,26.1],[84.087,26.219],[84.177,26.265],[84.157,26.376],[83.908,26.447],[83.915,26.502],[84.052,26.552],[84.113,26.63],[84.281,26.6],[84.419,26.632],[84.33,26.684],[84.259,26.805],[84.061,26.887],[84.05,27.044],[83.964,27.084],[83.993,27.175],[83.862,27.335],[83.831,27.428],[84.016,27.437],[84.097,27.517],[84.258,27.451],[84.279,27.395],[84.62,27.34],[84.689,27.221],[84.642,27.048],[84.758,27.003],[84.824,27.021],[84.961,26.96],[85.03,26.875],[85.192,26.869],[85.179,26.798],[85.255,26.754],[85.334,26.742],[85.544,26.838],[85.643,26.853],[85.729,26.809],[85.723,26.674],[85.859,26.568],[85.96,26.651],[86.029,26.666],[86.191,26.615],[86.341,26.607],[86.543,26.538],[86.57,26.497],[86.723,26.425],[86.847,26.442],[87.043,26.56],[87.092,26.45],[87.162,26.405],[87.368,26.407],[87.463,26.44],[87.589,26.381],[87.659,26.38],[87.848,26.436],[88.034,26.392],[88.099,26.456],[88.11,26.548],[88.24,26.458],[88.28,26.331],[88.147,26.251],[88.073,26.175],[87.975,26.144],[87.85,26.039],[87.822,25.936],[87.827,25.891],[87.893,25.866],[87.968,25.726],[88.05,25.701],[88.021,25.596],[88.067,25.484],[87.96,25.539],[87.867,25.497],[87.767,25.416],[87.784,25.341],[87.847,25.298],[87.818,25.242],[87.711,25.258],[87.693,25.312],[87.552,25.331],[87.478,25.195],[87.327,25.224],[87.295,25.089],[87.176,25.057],[87.145,25.019],[87.157,24.882],[87.11,24.851],[87.052,24.627],[86.952,24.631],[86.913,24.547],[86.754,24.618],[86.653,24.571],[86.611,24.608],[86.5,24.51],[86.452,24.373],[86.35,24.447],[86.276,24.466],[86.301,24.561],[86.133,24.604],[86.128,24.699],[86.055,24.78],[85.932,24.739],[85.738,24.82],[85.666,24.662],[85.677,24.591],[85.542,24.532],[85.374,24.554],[85.331,24.51],[85.289,24.523],[85.088,24.37],[85.029,24.415]]]}},{"type":"Feature","properties":{"state":"Chandigarh","bbox":[76.7099,30.6816,76.8383,30.7613]},"geometry":{"type":"Polygon","coordinates":[[[76.739,30.693],[76.71,30.761],[76.838,30.754],[76.828,30.682],[76.739,30.693]]]}},{"type":"Feature","properties":{"state":"Chhattisgarh","bbox":[80.2714,17.7947,84.3971,24.102]},"geometry":{"type":"Polygon","coordinates":[[[81.658,18.347],[81.53,18.24],[81.482,17.977],[81.4,17.894],[81.397,17.818],[81.265,17.811],[81.166,17.858],[81.085,17.797],[81.016,17.795],[80.97,18.048],[80.979,18.166],[80.866,18.14],[80.852,18.206],[80.756,18.17],[80.748,18.309],[80.706,18.439],[80.637,18.523],[80.455,18.631],[80.372,18.611],[80.276,18.72],[80.274,18.765],[80.349,18.848],[80.271,18.943],[80.329,19.07],[80.333,19.145],[80.394,19.187],[80.482,19.337],[80.577,19.398],[80.612,19.31],[80.752,19.288],[80.852,19.365],[80.895,19.52],[80.715,19.616],[80.672,19.703],[80.563,19.759],[80.547,19.818],[80.469,19.827],[80.53,19.939],[80.545,20.1],[80.505,20.144],[80.432,20.136],[80.395,20.244],[80.626,20.332],[80.591,20.393],[80.617,20.585],[80.521,20.58],[80.58,20.673],[80.547,20.935],[80.464,20.929],[80.44,21.097],[80.464,21.175],[80.614,21.226],[80.738,21.473],[80.715,21.662],[80.756,21.762],[80.817,21.762],[80.846,21.835],[80.833,21.897],[80.908,22.11],[81.004,22.059],[81.045,22.241],[81.119,22.291],[81.111,22.436],[81.193,22.491],[81.249,22.459],[81.328,22.525],[81.475,22.489],[81.622,22.538],[81.649,22.615],[81.729,22.67],[81.794,22.766],[81.776,22.874],[81.862,22.889],[81.95,22.983],[81.943,23.079],[82.123,23.104],[82.2,23.314],[82.103,23.398],[81.986,23.415],[81.917,23.534],[81.82,23.515],[81.758,23.549],[81.611,23.512],[81.614,23.663],[81.697,23.721],[81.611,23.837],[81.603,23.885],[81.668,23.925],[81.726,23.839],[81.81,23.808],[81.921,23.871],[82.007,23.861],[82.082,23.816],[82.209,23.853],[82.261,23.822],[82.498,23.784],[82.635,23.838],[82.694,23.919],[82.813,23.962],[82.947,23.871],[83.091,23.871],[83.207,23.922],[83.33,24.102],[83.432,24.086],[83.571,23.863],[83.706,23.82],[83.775,23.61],[83.938,23.569],[84.016,23.635],[84.015,23.504],[83.963,23.386],[84.074,23.334],[84.038,23.171],[84.064,23.114],[84.178,22.98],[84.374,22.979],[84.397,22.928],[84.324,22.851],[84.238,22.692],[84.152,22.637],[84.084,22.638],[84.01,22.573],[84.047,22.469],[84.01,22.371],[83.863,22.344],[83.628,22.203],[83.538,22.045],[83.539,21.966],[83.591,21.825],[83.461,21.698],[83.487,21.644],[83.383,21.621],[83.337,21.501],[83.399,21.405],[83.392,21.343],[83.269,21.377],[83.192,21.139],[83.077,21.112],[82.966,21.175],[82.64,21.155],[82.639,21.089],[82.561,20.947],[82.489,20.908],[82.46,20.826],[82.339,20.874],[82.377,20.632],[82.333,20.562],[82.438,20.434],[82.4,20.341],[82.421,20.205],[82.386,20.145],[82.398,20.056],[82.718,19.989],[82.697,19.831],[82.594,19.776],[82.531,19.879],[82.446,19.91],[82.345,19.836],[82.268,19.975],[82.184,19.985],[82.07,20.057],[82.018,20.049],[81.946,20.106],[81.875,20.052],[81.845,19.952],[81.869,19.902],[81.969,19.86],[81.986,19.802],[82.065,19.791],[82.028,19.508],[82.1,19.517],[82.126,19.429],[82.189,19.428],[82.161,19.202],[82.206,19.121],[82.246,18.919],[82.177,18.903],[82.158,18.789],[82.091,18.738],[81.9,18.661],[81.911,18.57],[81.77,18.419],[81.75,18.354],[81.658,18.347]]]}},{"type":"Feature","properties":{"state":"Dadra and Nagar Haveli and Daman and Diu","bbox":[70.9204,20.0864,73.2111,20.7421]},"geometry":{"type":"MultiPolygon","coordinates":[[[[73.043,20.326],[73.167,20.288],[73.135,20.199],[73.211,20.121],[73.138,20.086],[72.965,20.128],[72.933,20.295],[73.043,20.326]]],[[[72.887,20.462],[72.829,20.368],[72.836,20.453],[72.887,20.462]]],[[[70.92,20.742],[71.0,20.742],[70.977,20.702],[70.92,20.742]]]]}},{"type":"Feature","properties":{"state":"Delhi","bbox":[76.846,28.405,77.3476,28.8587]},"geometry":{"type":"Polygon","coordinates":[[[77.299,28.709],[77.341,28.61],[77.297,28.567],[77.348,28.52],[77.254,28.483],[77.175,28.405],[77.097,28.509],[77.007,28.541],[76.884,28.503],[76.846,28.551],[76.889,28.632],[76.971,28.698],[76.942,28.798],[76.968,28.812],[77.121,28.859],[77.216,28.853],[77.208,28.791],[77.299,28.709]]]}},{"type":"Feature","properties":{"state":"Goa","bbox":[73.6851,14.9008,74.3259,15.7421]},"geometry":{"type":"Polygon","coordinates":[[[74.275,15.392],[74.323,15.368],[74.326,15.283],[74.26,15.242],[74.317,15.187],[74.272,15.097],[74.297,15.041],[74.202,14.926],[74.086,14.901],[73.982,15.055],[73.884,15.354],[73.934,15.433],[73.766,15.495],[73.685,15.728],[73.939,15.742],[73.991,15.612],[74.237,15.668],[74.278,15.522],[74.251,15.492],[74.275,15.392]]]}},{"type":"Feature","properties":{"state":"Gujarat","bbox":[68.1006,20.1207,74.465,24.7124]},"geometry":{"type":"MultiPolygon","coordinates":[[[[70.827,20.69],[70.448,20.848],[70.092,21.115],[69.708,21.535],[69.371,21.83],[69.396,21.889],[69.351,21.839],[69.217,21.957],[68.966,22.234],[68.937,22.311],[69.006,22.44],[69.163,22.348],[69.179,22.213],[69.341,22.312],[69.491,22.337],[69.541,22.377],[69.621,22.371],[69.864,22.463],[69.975,22.543],[70.125,22.553],[70.223,22.661],[70.218,22.718],[70.292,22.766],[70.399,22.905],[70.449,22.844],[70.561,23.03],[70.689,23.118],[70.719,23.189],[70.504,23.177],[70.425,23.217],[70.312,23.215],[70.165,23.067],[70.081,22.92],[69.926,22.896],[69.648,22.796],[69.417,22.811],[69.131,22.874],[68.633,23.17],[68.532,23.28],[68.55,23.356],[68.4,23.42],[68.416,23.486],[68.327,23.496],[68.31,23.578],[68.142,23.602],[68.101,23.679],[68.172,23.696],[68.209,23.875],[68.339,23.966],[68.754,23.971],[68.764,24.296],[68.848,24.24],[68.946,24.303],[69.003,24.223],[69.095,24.274],[69.194,24.237],[69.313,24.281],[69.492,24.267],[69.595,24.293],[69.732,24.171],[70.026,24.171],[70.11,24.294],[70.573,24.422],[70.572,24.252],[70.668,24.219],[70.806,24.22],[70.986,24.366],[71.049,24.356],[71.102,24.436],[70.998,24.444],[70.986,24.596],[71.112,24.675],[71.287,24.616],[71.348,24.661],[71.377,24.626],[71.478,24.68],[71.608,24.677],[71.656,24.64],[72.058,24.712],[72.165,24.622],[72.23,24.64],[72.347,24.629],[72.353,24.564],[72.403,24.514],[72.441,24.515],[72.432,24.485],[72.5,24.417],[72.493,24.459],[72.539,24.519],[72.565,24.49],[72.683,24.464],[72.728,24.367],[72.958,24.36],[73.002,24.48],[73.087,24.498],[73.077,24.396],[73.151,24.355],[73.067,24.194],[73.125,24.125],[73.214,24.077],[73.243,24.002],[73.317,24.054],[73.405,24.042],[73.416,23.925],[73.378,23.904],[73.369,23.815],[73.474,23.705],[73.523,23.607],[73.572,23.654],[73.656,23.621],[73.627,23.449],[73.755,23.455],[73.83,23.426],[73.892,23.335],[73.959,23.38],[73.982,23.338],[74.139,23.266],[74.127,23.175],[74.248,23.184],[74.393,22.896],[74.46,22.907],[74.465,22.817],[74.402,22.731],[74.379,22.635],[74.263,22.643],[74.15,22.521],[74.058,22.55],[74.119,22.419],[74.216,22.441],[74.19,22.32],[74.069,22.356],[74.054,22.298],[74.122,22.212],[74.124,22.098],[74.095,22.017],[74.147,21.951],[73.817,21.841],[73.824,21.761],[73.881,21.714],[73.814,21.644],[73.835,21.52],[73.982,21.522],[74.164,21.568],[74.275,21.561],[74.321,21.498],[74.046,21.446],[73.959,21.395],[73.942,21.3],[73.823,21.27],[73.815,21.174],[73.667,21.155],[73.807,21.009],[73.849,20.999],[73.889,20.933],[73.942,20.84],[73.918,20.724],[73.875,20.73],[73.838,20.621],[73.745,20.565],[73.653,20.565],[73.615,20.625],[73.474,20.72],[73.407,20.624],[73.473,20.584],[73.468,20.496],[73.404,20.386],[73.416,20.205],[73.3,20.21],[73.249,20.122],[73.211,20.121],[73.135,20.199],[73.167,20.288],[73.043,20.326],[72.933,20.295],[72.962,20.209],[72.873,20.227],[72.775,20.132],[72.74,20.243],[72.778,20.337],[72.829,20.368],[72.887,20.462],[72.904,20.576],[72.855,20.75],[72.722,21.049],[72.751,21.062],[72.621,21.1],[72.638,21.211],[72.598,21.317],[72.654,21.346],[72.693,21.461],[72.736,21.475],[72.706,21.527],[72.61,21.581],[72.7,21.645],[72.543,21.733],[72.622,21.809],[72.509,21.944],[72.567,22.181],[72.648,22.216],[72.752,22.173],[72.867,22.214],[72.947,22.293],[72.659,22.279],[72.515,22.322],[72.46,22.257],[72.376,22.315],[72.338,22.177],[72.205,21.891],[72.242,21.824],[72.194,21.75],[72.309,21.625],[72.235,21.456],[72.109,21.302],[72.113,21.199],[71.677,20.996],[71.511,20.944],[71.437,20.869],[71.321,20.847],[71.05,20.731],[70.92,20.742],[70.827,20.69]]],[[[72.356,21.798],[72.31,21.841],[72.292,21.967],[72.375,22.029],[72.437,21.927],[72.356,21.798]]]]}},{"type":"Feature","properties":{"state":"Haryana","bbox":[74.4803,27.6544,77.583,30.9043]},"geometry":{"type":"Polygon","coordinates":[[[76.055,28.221],[75.893,28.39],[75.67,28.519],[75.623,28.602],[75.561,28.613],[75.52,28.834],[75.474,28.926],[75.528,28.971],[75.442,29.058],[75.392,29.062],[75.405,29.26],[75.346,29.283],[75.081,29.228],[75.051,29.286],[74.96,29.281],[74.938,29.362],[74.85,29.403],[74.788,29.362],[74.603,29.365],[74.584,29.458],[74.623,29.531],[74.575,29.564],[74.616,29.752],[74.48,29.745],[74.485,29.814],[74.561,29.869],[74.526,29.941],[74.647,29.912],[74.705,29.975],[74.812,29.993],[74.927,29.95],[74.997,29.868],[75.118,29.832],[75.191,29.844],[75.242,29.751],[75.168,29.667],[75.303,29.56],[75.346,29.696],[75.461,29.807],[75.58,29.74],[75.779,29.822],[75.947,29.729],[76.049,29.747],[76.098,29.81],[76.214,29.84],[76.172,29.927],[76.254,30.089],[76.41,30.145],[76.467,30.099],[76.577,30.101],[76.643,30.15],[76.562,30.242],[76.711,30.326],[76.748,30.429],[76.912,30.426],[76.898,30.445],[76.925,30.61],[76.828,30.682],[76.846,30.834],[76.777,30.904],[76.869,30.873],[76.916,30.9],[77.025,30.749],[77.167,30.684],[77.172,30.602],[77.123,30.563],[77.208,30.488],[77.407,30.427],[77.523,30.444],[77.58,30.379],[77.583,30.308],[77.227,29.939],[77.173,29.805],[77.12,29.755],[77.152,29.688],[77.106,29.633],[77.127,29.349],[77.155,29.297],[77.143,29.167],[77.167,29.033],[77.233,28.919],[77.216,28.853],[77.121,28.859],[76.942,28.798],[76.971,28.698],[76.889,28.632],[76.846,28.551],[76.884,28.503],[77.007,28.541],[77.097,28.509],[77.175,28.405],[77.254,28.483],[77.348,28.52],[77.505,28.371],[77.476,28.085],[77.542,27.99],[77.53,27.927],[77.421,27.855],[77.344,27.85],[77.283,27.799],[77.045,27.821],[76.977,27.654],[76.892,27.733],[76.942,27.843],[76.93,27.994],[76.97,28.138],[76.854,28.221],[76.796,28.148],[76.687,28.087],[76.669,28.013],[76.539,27.975],[76.543,28.034],[76.312,28.178],[76.36,28.125],[76.318,28.016],[76.26,28.067],[76.159,27.998],[76.169,27.903],[76.225,27.833],[76.176,27.799],[76.077,27.841],[75.971,27.852],[75.933,27.928],[75.973,27.932],[76.008,28.059],[75.999,28.123],[76.055,28.221]]]}},{"type":"Feature","properties":{"state":"Himachal Pradesh","bbox":[75.5982,30.3792,79.0082,33.251]},"geometry":{"type":"Polygon","coordinates":[[[76.916,30.9],[76.869,30.873],[76.624,30.999],[76.646,31.21],[76.588,31.274],[76.497,31.27],[76.432,31.326],[76.392,31.413],[76.289,31.307],[76.201,31.303],[76.121,31.498],[76.017,31.632],[75.961,31.781],[75.961,31.857],[75.91,31.95],[75.655,32.077],[75.598,32.082],[75.661,32.137],[75.638,32.252],[75.771,32.289],[75.873,32.396],[75.932,32.395],[75.837,32.511],[75.918,32.634],[75.924,32.748],[75.802,32.885],[75.85,32.929],[75.954,32.873],[76.088,32.957],[76.112,33.006],[76.222,33.021],[76.292,33.104],[76.41,33.186],[76.569,33.21],[76.646,33.162],[76.748,33.18],[76.773,33.251],[76.817,33.16],[76.886,33.122],[76.933,33.028],[77.01,32.988],[77.15,32.977],[77.338,32.817],[77.406,32.883],[77.468,32.858],[77.603,32.943],[77.741,32.969],[77.811,32.907],[77.935,32.726],[77.918,32.69],[78.016,32.62],[78.098,32.631],[78.143,32.682],[78.219,32.664],[78.387,32.757],[78.406,32.62],[78.312,32.573],[78.398,32.525],[78.455,32.452],[78.534,32.414],[78.481,32.348],[78.482,32.279],[78.609,32.214],[78.591,32.154],[78.782,31.993],[78.705,31.775],[78.764,31.674],[78.846,31.608],[78.735,31.537],[78.797,31.443],[78.75,31.366],[78.791,31.304],[78.881,31.284],[78.985,31.174],[79.008,31.111],[78.886,31.098],[78.809,31.199],[78.672,31.197],[78.609,31.229],[78.484,31.199],[78.371,31.286],[78.311,31.284],[78.247,31.23],[78.103,31.186],[77.967,31.174],[77.864,31.109],[77.829,31.029],[77.806,30.853],[77.704,30.764],[77.819,30.561],[77.815,30.506],[77.575,30.401],[77.58,30.379],[77.523,30.444],[77.407,30.427],[77.208,30.488],[77.123,30.563],[77.172,30.602],[77.167,30.684],[77.025,30.749],[76.916,30.9]]]}},{"type":"Feature","properties":{"state":"Jammu and Kashmir","bbox":[73.39,32.3079,76.7726,35.1097]},"geometry":{"type":"Polygon","coordinates":[[[74.869,32.487],[74.681,32.492],[74.638,32.613],[74.659,32.788],[74.514,32.744],[74.447,32.789],[74.382,32.757],[74.178,32.883],[74.06,32.909],[73.957,32.987],[73.829,33.008],[73.688,33.087],[73.627,33.09],[73.656,33.208],[73.564,33.342],[73.621,33.574],[73.561,33.621],[73.598,33.713],[73.56,33.776],[73.589,33.883],[73.522,33.985],[73.492,34.22],[73.39,34.374],[73.447,34.574],[73.618,34.586],[73.749,34.787],[73.963,34.842],[74.074,34.939],[74.066,35.048],[74.147,35.097],[74.252,35.037],[74.381,35.057],[74.486,35.11],[74.587,35.009],[74.567,34.873],[74.457,34.853],[74.413,34.799],[74.32,34.787],[74.563,34.769],[74.733,34.671],[74.925,34.663],[75.02,34.626],[75.132,34.646],[75.239,34.629],[75.357,34.53],[75.32,34.435],[75.375,34.388],[75.413,34.283],[75.687,34.16],[75.864,33.978],[76.022,33.998],[76.048,33.929],[76.17,33.795],[76.265,33.742],[76.271,33.643],[76.309,33.571],[76.502,33.516],[76.773,33.251],[76.748,33.18],[76.646,33.162],[76.569,33.21],[76.41,33.186],[76.292,33.104],[76.222,33.021],[76.112,33.006],[76.088,32.957],[75.954,32.873],[75.85,32.929],[75.802,32.885],[75.924,32.748],[75.918,32.634],[75.837,32.511],[75.728,32.452],[75.687,32.39],[75.597,32.378],[75.513,32.308],[75.341,32.346],[75.107,32.461],[74.947,32.447],[74.889,32.521],[74.869,32.487]]]}},{"type":"Feature","properties":{"state":"Jharkhand","bbox":[83.3297,21.9835,87.9601,25.3311]},"geometry":{"type":"Polygon","coordinates":[[[86.032,22.19],[86.009,22.116],[85.897,21.984],[85.784,21.985],[85.749,22.074],[85.683,22.058],[85.397,22.164],[85.275,22.083],[85.238,22.01],[85.18,22.073],[85.029,22.122],[85.078,22.257],[85.07,22.491],[84.958,22.445],[84.81,22.454],[84.75,22.419],[84.535,22.428],[84.429,22.352],[84.292,22.342],[84.197,22.378],[84.111,22.477],[84.012,22.528],[84.01,22.573],[84.084,22.638],[84.152,22.637],[84.238,22.692],[84.324,22.851],[84.397,22.928],[84.374,22.979],[84.178,22.98],[84.064,23.114],[84.038,23.171],[84.074,23.334],[83.963,23.386],[84.015,23.504],[84.016,23.635],[83.938,23.569],[83.775,23.61],[83.706,23.82],[83.571,23.863],[83.432,24.086],[83.33,24.102],[83.409,24.267],[83.38,24.314],[83.4,24.498],[83.503,24.525],[83.718,24.503],[83.873,24.532],[83.937,24.549],[84.009,24.642],[84.093,24.534],[84.256,24.527],[84.327,24.49],[84.342,24.393],[84.46,24.337],[84.497,24.288],[84.585,24.4],[84.802,24.531],[84.888,24.464],[84.903,24.373],[85.029,24.415],[85.088,24.37],[85.289,24.523],[85.331,24.51],[85.374,24.554],[85.542,24.532],[85.677,24.591],[85.666,24.662],[85.738,24.82],[85.932,24.739],[86.055,24.78],[86.128,24.699],[86.133,24.604],[86.301,24.561],[86.276,24.466],[86.35,24.447],[86.452,24.373],[86.5,24.51],[86.611,24.608],[86.653,24.571],[86.754,24.618],[86.913,24.547],[86.952,24.631],[87.052,24.627],[87.11,24.851],[87.157,24.882],[87.145,25.019],[87.176,25.057],[87.295,25.089],[87.327,25.224],[87.478,25.195],[87.552,25.331],[87.693,25.312],[87.711,25.258],[87.778,25.25],[87.795,25.088],[87.954,24.974],[87.96,24.921],[87.891,24.855],[87.839,24.745],[87.908,24.722],[87.89,24.565],[87.793,24.583],[87.801,24.382],[87.706,24.26],[87.639,24.255],[87.631,24.164],[87.44,23.982],[87.336,24.035],[87.234,24.025],[87.295,23.901],[87.234,23.856],[87.13,23.853],[87.085,23.812],[86.916,23.882],[86.801,23.834],[86.827,23.765],[86.801,23.699],[86.712,23.699],[86.486,23.636],[86.365,23.532],[86.31,23.412],[86.177,23.47],[86.159,23.559],[86.082,23.566],[86.039,23.499],[85.885,23.483],[85.859,23.43],[85.883,23.35],[85.819,23.269],[85.885,23.167],[86.044,23.145],[86.241,22.997],[86.501,22.994],[86.436,22.927],[86.419,22.791],[86.642,22.657],[86.659,22.576],[86.766,22.576],[86.801,22.488],[86.764,22.426],[86.845,22.4],[86.833,22.326],[86.728,22.216],[86.497,22.346],[86.429,22.316],[86.359,22.349],[86.283,22.448],[86.119,22.487],[86.067,22.557],[85.963,22.485],[86.018,22.426],[86.029,22.334],[85.974,22.247],[86.032,22.19]]]}},{"type":"Feature","properties":{"state":"Karnataka","bbox":[74.0858,11.5945,78.5862,18.4422]},"geometry":{"type":"Polygon","coordinates":[[[76.003,11.931],[75.87,11.952],[75.794,12.056],[75.636,12.149],[75.577,12.157],[75.485,12.29],[75.415,12.29],[75.422,12.373],[75.366,12.412],[75.416,12.499],[75.28,12.524],[75.112,12.681],[74.982,12.738],[74.869,12.759],[74.823,12.847],[74.67,13.635],[74.583,13.926],[74.515,13.987],[74.395,14.418],[74.269,14.627],[74.263,14.719],[74.118,14.785],[74.086,14.901],[74.202,14.926],[74.297,15.041],[74.272,15.097],[74.317,15.187],[74.26,15.242],[74.326,15.283],[74.323,15.368],[74.275,15.392],[74.251,15.492],[74.278,15.522],[74.237,15.668],[74.118,15.651],[74.122,15.72],[74.21,15.781],[74.239,15.745],[74.346,15.764],[74.387,15.904],[74.464,16.039],[74.372,16.079],[74.48,16.148],[74.48,16.249],[74.373,16.262],[74.317,16.326],[74.332,16.454],[74.315,16.555],[74.545,16.636],[74.571,16.555],[74.63,16.583],[74.696,16.715],[74.85,16.773],[74.919,16.773],[74.902,16.863],[75.089,16.952],[75.182,16.843],[75.265,16.863],[75.28,16.956],[75.465,16.989],[75.529,16.97],[75.665,16.979],[75.673,17.116],[75.626,17.173],[75.655,17.274],[75.604,17.305],[75.574,17.384],[75.633,17.477],[75.814,17.373],[75.895,17.401],[75.932,17.323],[76.23,17.366],[76.383,17.315],[76.372,17.436],[76.331,17.47],[76.332,17.597],[76.49,17.66],[76.523,17.76],[76.656,17.718],[76.685,17.682],[76.714,17.781],[76.791,17.826],[76.74,17.899],[76.776,17.877],[76.919,17.916],[76.906,18.009],[76.953,18.041],[76.921,18.118],[76.951,18.188],[77.065,18.151],[77.247,18.371],[77.265,18.423],[77.317,18.442],[77.413,18.393],[77.409,18.302],[77.465,18.262],[77.551,18.292],[77.601,18.276],[77.563,18.196],[77.598,18.093],[77.548,18.056],[77.656,17.969],[77.586,17.907],[77.537,17.78],[77.453,17.694],[77.444,17.584],[77.686,17.511],[77.513,17.43],[77.484,17.355],[77.38,17.223],[77.364,17.158],[77.464,17.11],[77.497,17.043],[77.459,16.885],[77.476,16.788],[77.426,16.721],[77.453,16.616],[77.416,16.518],[77.242,16.474],[77.288,16.409],[77.415,16.368],[77.49,16.386],[77.594,16.343],[77.5,16.222],[77.514,15.928],[77.248,15.965],[77.072,15.91],[77.026,15.837],[77.083,15.66],[77.031,15.635],[77.033,15.436],[77.063,15.328],[77.152,15.293],[77.126,15.227],[77.156,15.14],[77.114,15.034],[76.985,15.015],[76.8,15.096],[76.76,14.989],[76.867,14.97],[76.837,14.791],[76.776,14.681],[76.765,14.602],[76.806,14.531],[76.901,14.49],[76.884,14.348],[77.005,14.235],[77.117,14.226],[77.138,14.337],[77.364,14.275],[77.409,14.337],[77.479,14.292],[77.504,14.157],[77.393,14.175],[77.39,14.017],[77.435,13.948],[77.398,13.907],[77.322,14.031],[77.173,14.013],[77.028,14.062],[77.003,14.198],[76.895,14.168],[76.948,14.095],[76.932,14.031],[77.042,13.933],[76.977,13.827],[77.065,13.743],[77.158,13.806],[77.181,13.87],[77.326,13.834],[77.433,13.844],[77.47,13.758],[77.456,13.683],[77.782,13.819],[77.814,13.915],[77.97,13.959],[78.001,13.872],[78.115,13.863],[78.121,13.716],[78.204,13.629],[78.196,13.569],[78.401,13.588],[78.364,13.362],[78.444,13.309],[78.586,13.276],[78.467,12.975],[78.355,12.94],[78.312,12.859],[78.253,12.861],[78.231,12.76],[78.134,12.782],[78.057,12.852],[77.979,12.836],[77.929,12.891],[77.831,12.866],[77.793,12.749],[77.739,12.672],[77.601,12.668],[77.588,12.514],[77.635,12.488],[77.615,12.367],[77.551,12.292],[77.471,12.243],[77.505,12.198],[77.611,12.206],[77.747,12.155],[77.776,12.113],[77.708,12.036],[77.676,11.952],[77.494,11.944],[77.429,11.768],[77.293,11.809],[77.111,11.773],[77.013,11.814],[76.909,11.795],[76.835,11.655],[76.848,11.595],[76.56,11.622],[76.511,11.704],[76.418,11.671],[76.413,11.758],[76.318,11.751],[76.207,11.861],[76.113,11.858],[76.113,11.979],[76.003,11.931]]]}},{"type":"Feature","properties":{"state":"Kerala","bbox":[74.8687,8.2924,77.4026,12.7589]},"geometry":{"type":"Polygon","coordinates":[[[76.899,10.253],[76.982,10.22],[77.091,10.315],[77.181,10.357],[77.288,10.232],[77.263,10.029],[77.213,9.877],[77.247,9.799],[77.167,9.612],[77.27,9.572],[77.318,9.602],[77.403,9.526],[77.282,9.299],[77.268,9.153],[77.149,9.01],[77.193,8.926],[77.256,8.879],[77.17,8.742],[77.27,8.578],[77.262,8.507],[77.098,8.292],[76.959,8.422],[76.682,8.776],[76.548,8.903],[76.479,9.123],[76.32,9.483],[76.28,9.789],[76.167,10.181],[76.214,10.194],[76.162,10.184],[76.101,10.382],[75.91,10.793],[75.826,11.123],[75.698,11.425],[75.618,11.478],[75.554,11.702],[75.386,11.857],[75.357,11.86],[75.251,12.008],[75.201,12.007],[74.869,12.759],[74.982,12.738],[75.112,12.681],[75.28,12.524],[75.416,12.499],[75.366,12.412],[75.422,12.373],[75.415,12.29],[75.485,12.29],[75.577,12.157],[75.636,12.149],[75.794,12.056],[75.87,11.952],[76.003,11.931],[76.113,11.979],[76.113,11.858],[76.207,11.861],[76.318,11.751],[76.413,11.758],[76.418,11.671],[76.378,11.601],[76.234,11.527],[76.461,11.388],[76.548,11.359],[76.522,11.27],[76.442,11.201],[76.629,11.194],[76.707,11.24],[76.695,11.167],[76.754,11.079],[76.656,10.939],[76.831,10.87],[76.907,10.782],[76.838,10.596],[76.815,10.423],[76.834,10.339],[76.899,10.253]],[[75.542,11.739],[75.537,11.72],[75.555,11.722],[75.542,11.739]]]}},{"type":"Feature","properties":{"state":"Ladakh","bbox":[72.5306,32.3382,80.3264,37.077]},"geometry":{"type":"Polygon","coordinates":[[[77.15,32.977],[77.01,32.988],[76.933,33.028],[76.886,33.122],[76.817,33.16],[76.773,33.251],[76.502,33.516],[76.309,33.571],[76.271,33.643],[76.265,33.742],[76.17,33.795],[76.048,33.929],[76.022,33.998],[75.864,33.978],[75.687,34.16],[75.413,34.283],[75.375,34.388],[75.32,34.435],[75.357,34.53],[75.239,34.629],[75.132,34.646],[75.02,34.626],[74.925,34.663],[74.733,34.671],[74.563,34.769],[74.32,34.787],[74.413,34.799],[74.457,34.853],[74.567,34.873],[74.587,35.009],[74.486,35.11],[74.381,35.057],[74.252,35.037],[73.795,35.244],[73.731,35.217],[73.7,35.357],[73.794,35.46],[73.785,35.525],[73.635,35.572],[73.407,35.563],[73.136,35.719],[73.153,35.841],[73.089,35.882],[72.928,35.845],[72.901,35.881],[72.69,35.833],[72.534,35.917],[72.595,36.027],[72.531,36.073],[72.595,36.262],[72.778,36.31],[72.882,36.387],[72.879,36.443],[72.991,36.457],[73.112,36.61],[73.125,36.687],[73.44,36.744],[73.7,36.684],[73.807,36.715],[73.863,36.787],[73.723,36.834],[73.69,36.912],[73.878,36.894],[74.055,36.806],[74.142,36.839],[74.168,36.902],[74.26,36.886],[74.428,36.989],[74.531,36.986],[74.586,37.044],[74.708,37.077],[74.734,37.021],[74.84,37.022],[74.921,36.905],[75.017,36.975],[75.095,36.942],[75.208,37.036],[75.343,37.052],[75.35,36.981],[75.422,36.96],[75.473,36.81],[75.615,36.761],[75.748,36.588],[75.922,36.502],[76.077,36.473],[76.254,36.347],[76.351,36.359],[76.432,36.307],[76.481,36.211],[76.6,36.165],[76.643,36.183],[76.719,36.083],[76.8,36.047],[76.722,35.952],[76.811,35.844],[76.935,35.783],[77.115,35.797],[77.166,35.734],[77.43,35.654],[77.464,35.573],[77.435,35.517],[77.612,35.468],[77.722,35.475],[77.817,35.512],[77.9,35.467],[77.965,35.572],[78.04,35.587],[78.137,35.539],[78.198,35.669],[78.271,35.721],[78.384,35.735],[78.423,35.785],[78.52,35.763],[78.664,35.858],[78.822,35.855],[78.959,35.892],[79.02,35.848],[79.131,35.836],[79.193,35.886],[79.215,35.979],[79.377,35.995],[79.421,35.896],[79.869,35.782],[79.998,35.837],[80.106,35.68],[80.29,35.607],[80.326,35.47],[80.224,35.22],[80.181,35.166],[80.173,35.002],[80.071,34.828],[80.068,34.714],[79.943,34.681],[79.858,34.689],[79.774,34.627],[79.793,34.484],[79.592,34.501],[79.507,34.475],[79.591,34.282],[79.505,34.205],[79.493,34.135],[79.354,34.036],[79.196,34.051],[79.134,34.026],[79.02,34.051],[78.904,33.976],[78.999,33.804],[79.045,33.765],[79.106,33.617],[78.988,33.611],[78.913,33.574],[78.932,33.432],[78.988,33.334],[79.109,33.292],[79.239,33.298],[79.453,33.258],[79.375,33.085],[79.421,32.961],[79.626,32.74],[79.447,32.532],[79.319,32.593],[79.193,32.483],[79.135,32.477],[79.114,32.384],[79.033,32.386],[78.981,32.338],[78.857,32.44],[78.776,32.558],[78.761,32.654],[78.661,32.654],[78.458,32.58],[78.398,32.525],[78.312,32.573],[78.406,32.62],[78.387,32.757],[78.219,32.664],[78.143,32.682],[78.098,32.631],[78.016,32.62],[77.918,32.69],[77.935,32.726],[77.811,32.907],[77.741,32.969],[77.603,32.943],[77.468,32.858],[77.406,32.883],[77.338,32.817],[77.15,32.977]]]}},{"type":"Feature","properties":{"state":"Lakshadweep","bbox":[73.0184,8.2635,73.0536,8.2759]},"geometry":{"type":"Polygon","coordinates":[[[73.043,8.263],[73.018,8.276],[73.054,8.273],[73.043,8.263]]]}},{"type":"Feature","properties":{"state":"Madhya Pradesh","bbox":[74.0537,21.0762,82.8129,26.8694]},"geometry":{"type":"Polygon","coordinates":[[[76.49,21.192],[76.477,21.148],[76.383,21.076],[76.167,21.079],[76.159,21.255],[76.095,21.372],[75.383,21.38],[75.211,21.412],[75.107,21.462],[75.052,21.567],[74.863,21.634],[74.775,21.615],[74.583,21.665],[74.505,21.726],[74.525,21.912],[74.453,21.962],[74.433,22.03],[74.282,21.934],[74.147,21.951],[74.095,22.017],[74.124,22.098],[74.122,22.212],[74.054,22.298],[74.069,22.356],[74.19,22.32],[74.216,22.441],[74.119,22.419],[74.058,22.55],[74.15,22.521],[74.263,22.643],[74.379,22.635],[74.402,22.731],[74.465,22.817],[74.46,22.907],[74.393,22.896],[74.32,23.06],[74.386,23.112],[74.506,23.085],[74.734,23.221],[74.529,23.321],[74.572,23.42],[74.772,23.543],[74.847,23.552],[74.922,23.666],[74.941,23.765],[74.902,23.874],[74.974,24.04],[74.879,24.174],[74.908,24.212],[74.867,24.244],[74.754,24.242],[74.782,24.338],[74.855,24.424],[74.815,24.469],[74.697,24.483],[74.786,24.586],[74.772,24.662],[74.805,24.736],[74.889,24.634],[74.993,24.693],[74.977,24.765],[74.861,24.799],[74.826,24.899],[74.902,24.93],[74.959,24.858],[75.038,24.846],[75.116,24.877],[75.113,24.967],[75.191,25.037],[75.352,25.019],[75.337,24.953],[75.184,24.748],[75.456,24.681],[75.549,24.703],[75.609,24.682],[75.785,24.762],[75.824,24.667],[75.921,24.543],[75.901,24.443],[75.786,24.453],[75.728,24.396],[75.814,24.245],[75.751,24.143],[75.837,24.057],[75.702,23.966],[75.522,24.025],[75.462,23.918],[75.565,23.856],[75.583,23.795],[75.69,23.747],[75.794,23.867],[75.938,23.897],[76.042,24.066],[76.127,24.088],[76.118,24.194],[76.321,24.245],[76.571,24.209],[76.644,24.27],[76.676,24.191],[76.802,24.117],[76.881,24.131],[76.922,24.212],[76.863,24.272],[76.832,24.358],[76.844,24.436],[76.817,24.534],[76.861,24.549],[76.977,24.461],[77.069,24.557],[77.034,24.708],[76.947,24.759],[76.855,24.744],[76.805,24.807],[76.95,24.869],[76.861,24.961],[76.877,25.041],[77.0,25.075],[77.086,25.055],[77.175,25.111],[77.27,25.115],[77.312,25.081],[77.393,25.119],[77.412,25.224],[77.367,25.411],[77.314,25.431],[77.234,25.379],[77.224,25.319],[77.083,25.337],[76.945,25.284],[76.857,25.332],[76.762,25.32],[76.67,25.349],[76.594,25.408],[76.516,25.528],[76.503,25.671],[76.546,25.838],[76.643,25.908],[76.716,25.902],[76.788,25.944],[76.901,26.093],[77.12,26.214],[77.271,26.267],[77.438,26.403],[77.539,26.412],[77.745,26.538],[77.823,26.55],[77.904,26.659],[78.001,26.695],[78.089,26.676],[78.112,26.795],[78.358,26.869],[78.395,26.817],[78.545,26.764],[78.78,26.769],[78.872,26.698],[79.007,26.671],[78.99,26.579],[79.135,26.44],[79.138,26.339],[78.994,26.197],[79.011,26.083],[78.949,26.028],[78.938,25.952],[78.886,25.913],[78.764,25.72],[78.811,25.62],[78.718,25.605],[78.658,25.559],[78.452,25.572],[78.395,25.444],[78.355,25.452],[78.34,25.433],[78.345,25.328],[78.447,25.122],[78.337,25.085],[78.346,25.012],[78.172,24.876],[78.276,24.663],[78.268,24.45],[78.369,24.374],[78.329,24.327],[78.389,24.263],[78.502,24.391],[78.586,24.354],[78.702,24.227],[78.806,24.179],[78.972,24.348],[78.985,24.442],[78.915,24.459],[78.953,24.547],[78.883,24.641],[78.751,24.6],[78.78,24.706],[78.77,24.86],[78.676,24.898],[78.632,24.957],[78.64,25.071],[78.513,25.276],[78.66,25.383],[78.774,25.353],[78.731,25.458],[78.884,25.515],[78.942,25.492],[78.88,25.386],[78.961,25.345],[78.871,25.187],[78.88,25.158],[78.93,25.207],[79.063,25.222],[79.131,25.11],[79.245,25.114],[79.323,25.15],[79.264,25.273],[79.28,25.324],[79.352,25.33],[79.436,25.254],[79.391,25.17],[79.406,25.107],[79.491,25.079],[79.569,25.172],[79.673,25.121],[79.748,25.14],[79.84,25.099],[79.855,25.194],[80.033,25.342],[80.221,25.397],[80.316,25.389],[80.311,25.286],[80.404,25.243],[80.43,25.174],[80.264,25.024],[80.342,25.013],[80.401,25.07],[80.478,24.976],[80.501,25.041],[80.592,25.09],[80.715,25.066],[80.724,25.118],[80.845,25.187],[80.878,25.066],[80.831,25.033],[80.86,24.928],[80.946,24.967],[81.034,24.953],[81.12,24.904],[81.16,24.913],[81.264,25.053],[81.278,25.166],[81.392,25.132],[81.499,25.148],[81.541,25.188],[81.626,25.161],[81.668,25.062],[81.793,25.004],[81.892,24.989],[81.943,24.846],[82.216,24.794],[82.298,24.607],[82.418,24.594],[82.418,24.652],[82.671,24.697],[82.707,24.637],[82.773,24.642],[82.798,24.576],[82.744,24.497],[82.713,24.38],[82.77,24.37],[82.744,24.165],[82.665,24.128],[82.813,23.962],[82.694,23.919],[82.635,23.838],[82.498,23.784],[82.261,23.822],[82.209,23.853],[82.082,23.816],[82.007,23.861],[81.921,23.871],[81.81,23.808],[81.726,23.839],[81.668,23.925],[81.603,23.885],[81.611,23.837],[81.697,23.721],[81.614,23.663],[81.611,23.512],[81.758,23.549],[81.82,23.515],[81.917,23.534],[81.986,23.415],[82.103,23.398],[82.2,23.314],[82.123,23.104],[81.943,23.079],[81.95,22.983],[81.862,22.889],[81.776,22.874],[81.794,22.766],[81.729,22.67],[81.649,22.615],[81.622,22.538],[81.475,22.489],[81.328,22.525],[81.249,22.459],[81.193,22.491],[81.111,22.436],[81.119,22.291],[81.045,22.241],[81.004,22.059],[80.908,22.11],[80.833,21.897],[80.846,21.835],[80.817,21.762],[80.756,21.762],[80.715,21.662],[80.738,21.473],[80.661,21.333],[80.622,21.321],[80.528,21.395],[80.423,21.441],[80.375,21.524],[80.268,21.618],[80.121,21.611],[80.066,21.555],[79.918,21.524],[79.739,21.603],[79.539,21.541],[79.496,21.674],[79.392,21.674],[79.235,21.718],[79.224,21.648],[79.077,21.605],[78.975,21.618],[78.916,21.59],[78.9,21.501],[78.585,21.487],[78.511,21.528],[78.433,21.497],[78.42,21.571],[78.343,21.589],[78.224,21.552],[78.176,21.5],[78.03,21.421],[77.884,21.384],[77.802,21.409],[77.488,21.375],[77.455,21.553],[77.575,21.527],[77.543,21.704],[77.479,21.77],[77.28,21.758],[77.21,21.689],[77.062,21.713],[77.007,21.678],[76.999,21.692],[76.903,21.597],[76.855,21.614],[76.782,21.559],[76.783,21.464],[76.621,21.332],[76.662,21.281],[76.623,21.185],[76.49,21.192]]]}},{"type":"Feature","properties":{"state":"Maharashtra","bbox":[72.6545,15.6115,80.8953,22.0303]},"geometry":{"type":"Polygon","coordinates":[[[74.315,16.555],[74.332,16.454],[74.317,16.326],[74.373,16.262],[74.48,16.249],[74.48,16.148],[74.372,16.079],[74.464,16.039],[74.387,15.904],[74.346,15.764],[74.239,15.745],[74.21,15.781],[74.122,15.72],[74.118,15.651],[73.991,15.612],[73.939,15.742],[73.685,15.728],[73.589,15.91],[73.511,15.937],[73.369,16.364],[73.352,16.615],[73.306,16.731],[73.318,16.805],[73.277,16.891],[73.289,17.116],[73.223,17.265],[73.245,17.322],[73.184,17.385],[73.177,17.583],[73.044,17.982],[72.973,18.125],[72.969,18.243],[73.029,18.265],[72.914,18.354],[72.895,18.463],[72.934,18.541],[72.856,18.699],[72.869,18.8],[72.803,18.905],[72.84,19.048],[72.786,19.13],[72.798,19.304],[72.719,19.539],[72.716,19.646],[72.654,19.836],[72.664,19.934],[72.732,19.972],[72.708,20.074],[72.873,20.227],[72.962,20.209],[72.965,20.128],[73.138,20.086],[73.249,20.122],[73.3,20.21],[73.416,20.205],[73.404,20.386],[73.468,20.496],[73.473,20.584],[73.407,20.624],[73.474,20.72],[73.615,20.625],[73.653,20.565],[73.745,20.565],[73.838,20.621],[73.875,20.73],[73.918,20.724],[73.942,20.84],[73.889,20.933],[73.849,20.999],[73.807,21.009],[73.667,21.155],[73.815,21.174],[73.823,21.27],[73.942,21.3],[73.959,21.395],[74.046,21.446],[74.321,21.498],[74.275,21.561],[74.164,21.568],[73.982,21.522],[73.835,21.52],[73.814,21.644],[73.881,21.714],[73.824,21.761],[73.817,21.841],[74.147,21.951],[74.282,21.934],[74.433,22.03],[74.453,21.962],[74.525,21.912],[74.505,21.726],[74.583,21.665],[74.775,21.615],[74.863,21.634],[75.052,21.567],[75.107,21.462],[75.211,21.412],[75.383,21.38],[76.095,21.372],[76.159,21.255],[76.167,21.079],[76.383,21.076],[76.477,21.148],[76.49,21.192],[76.623,21.185],[76.662,21.281],[76.621,21.332],[76.783,21.464],[76.782,21.559],[76.855,21.614],[76.903,21.597],[76.999,21.692],[77.007,21.678],[77.062,21.713],[77.21,21.689],[77.28,21.758],[77.479,21.77],[77.543,21.704],[77.575,21.527],[77.455,21.553],[77.488,21.375],[77.802,21.409],[77.884,21.384],[78.03,21.421],[78.176,21.5],[78.224,21.552],[78.343,21.589],[78.42,21.571],[78.433,21.497],[78.511,21.528],[78.585,21.487],[78.9,21.501],[78.916,21.59],[78.975,21.618],[79.077,21.605],[79.224,21.648],[79.235,21.718],[79.392,21.674],[79.496,21.674],[79.539,21.541],[79.739,21.603],[79.918,21.524],[80.066,21.555],[80.121,21.611],[80.268,21.618],[80.375,21.524],[80.423,21.441],[80.528,21.395],[80.622,21.321],[80.661,21.333],[80.614,21.226],[80.464,21.175],[80.44,21.097],[80.464,20.929],[80.547,20.935],[80.58,20.673],[80.521,20.58],[80.617,20.585],[80.591,20.393],[80.626,20.332],[80.395,20.244],[80.432,20.136],[80.505,20.144],[80.545,20.1],[80.53,19.939],[80.469,19.827],[80.547,19.818],[80.563,19.759],[80.672,19.703],[80.715,19.616],[80.895,19.52],[80.852,19.365],[80.752,19.288],[80.612,19.31],[80.577,19.398],[80.482,19.337],[80.394,19.187],[80.333,19.145],[80.329,19.07],[80.271,18.943],[80.349,18.848],[80.274,18.765],[80.276,18.72],[80.118,18.68],[80.019,18.771],[79.914,18.826],[79.961,18.866],[79.94,19.035],[79.858,19.102],[79.929,19.158],[79.978,19.399],[79.944,19.47],[79.865,19.51],[79.806,19.579],[79.744,19.609],[79.472,19.501],[79.366,19.576],[79.253,19.593],[79.19,19.459],[79.097,19.532],[78.936,19.55],[78.956,19.656],[78.86,19.689],[78.842,19.762],[78.575,19.818],[78.432,19.814],[78.381,19.88],[78.306,19.912],[78.364,19.781],[78.343,19.714],[78.276,19.692],[78.306,19.607],[78.309,19.481],[78.212,19.428],[78.175,19.238],[78.042,19.271],[77.944,19.343],[77.863,19.304],[77.86,19.18],[77.797,19.073],[77.843,18.908],[77.949,18.844],[77.84,18.805],[77.788,18.683],[77.73,18.666],[77.739,18.556],[77.597,18.549],[77.585,18.446],[77.525,18.372],[77.551,18.292],[77.465,18.262],[77.409,18.302],[77.413,18.393],[77.317,18.442],[77.265,18.423],[77.247,18.371],[77.065,18.151],[76.951,18.188],[76.921,18.118],[76.953,18.041],[76.906,18.009],[76.919,17.916],[76.776,17.877],[76.74,17.899],[76.791,17.826],[76.714,17.781],[76.685,17.682],[76.656,17.718],[76.523,17.76],[76.49,17.66],[76.332,17.597],[76.331,17.47],[76.372,17.436],[76.383,17.315],[76.23,17.366],[75.932,17.323],[75.895,17.401],[75.814,17.373],[75.633,17.477],[75.574,17.384],[75.604,17.305],[75.655,17.274],[75.626,17.173],[75.673,17.116],[75.665,16.979],[75.529,16.97],[75.465,16.989],[75.28,16.956],[75.265,16.863],[75.182,16.843],[75.089,16.952],[74.902,16.863],[74.919,16.773],[74.85,16.773],[74.696,16.715],[74.63,16.583],[74.571,16.555],[74.545,16.636],[74.315,16.555]]]}},{"type":"Feature","properties":{"state":"Manipur","bbox":[92.9759,23.8477,94.7436,25.6046]},"geometry":{"type":"Polygon","coordinates":[[[93.505,23.943],[93.416,24.072],[93.378,24.088],[93.253,24.021],[92.976,24.116],[93.023,24.234],[93.009,24.413],[93.049,24.545],[93.087,24.572],[93.109,24.811],[93.175,24.798],[93.248,24.915],[93.247,24.972],[93.344,25.123],[93.381,25.24],[93.47,25.306],[93.502,25.243],[93.606,25.199],[93.667,25.31],[93.805,25.463],[93.765,25.539],[94.007,25.568],[94.107,25.522],[94.19,25.548],[94.208,25.496],[94.416,25.536],[94.488,25.605],[94.551,25.58],[94.554,25.504],[94.675,25.445],[94.575,25.214],[94.653,25.115],[94.736,25.114],[94.744,25.037],[94.687,24.89],[94.632,24.839],[94.629,24.756],[94.545,24.711],[94.534,24.642],[94.375,24.494],[94.407,24.437],[94.291,24.233],[94.156,23.848],[94.017,23.927],[93.893,23.954],[93.808,23.926],[93.74,24.006],[93.624,24.011],[93.505,23.943]]]}},{"type":"Feature","properties":{"state":"Meghalaya","bbox":[89.815,25.03,92.7923,26.1188]},"geometry":{"type":"Polygon","coordinates":[[[91.252,25.198],[91.081,25.202],[90.855,25.159],[90.78,25.184],[90.693,25.159],[90.511,25.169],[90.445,25.144],[90.332,25.192],[90.112,25.224],[89.974,25.299],[89.835,25.297],[89.815,25.389],[89.872,25.477],[89.878,25.55],[90.02,25.607],[89.899,25.727],[90.122,25.959],[90.187,25.944],[90.434,25.991],[90.632,25.919],[90.717,25.955],[90.948,25.948],[91.026,25.886],[91.008,25.825],[91.147,25.851],[91.222,25.723],[91.335,25.841],[91.445,25.84],[91.58,26.034],[91.722,25.966],[91.723,26.035],[91.826,26.119],[91.867,26.042],[92.133,26.045],[92.173,26.076],[92.274,26.065],[92.164,25.97],[92.202,25.907],[92.152,25.816],[92.152,25.672],[92.225,25.716],[92.444,25.72],[92.505,25.617],[92.584,25.551],[92.661,25.572],[92.569,25.466],[92.653,25.434],[92.792,25.283],[92.743,25.207],[92.664,25.177],[92.621,25.115],[92.48,25.108],[92.425,25.03],[92.081,25.184],[91.746,25.172],[91.642,25.125],[91.603,25.174],[91.493,25.134],[91.379,25.177],[91.355,25.233],[91.252,25.198]]]}},{"type":"Feature","properties":{"state":"Mizoram","bbox":[92.2571,22.011,93.4239,24.5131]},"geometry":{"type":"Polygon","coordinates":[[[92.6,22.011],[92.606,22.124],[92.509,22.741],[92.448,22.876],[92.372,22.936],[92.392,23.057],[92.346,23.237],[92.402,23.266],[92.364,23.323],[92.272,23.643],[92.257,23.813],[92.324,23.914],[92.312,24.053],[92.331,24.183],[92.295,24.245],[92.422,24.25],[92.436,24.154],[92.532,24.178],[92.551,24.248],[92.612,24.256],[92.626,24.332],[92.69,24.354],[92.762,24.513],[92.8,24.42],[92.896,24.391],[93.009,24.413],[93.023,24.234],[92.976,24.116],[93.207,24.047],[93.396,23.926],[93.424,23.527],[93.39,23.497],[93.402,23.389],[93.358,23.331],[93.392,23.221],[93.355,23.074],[93.3,23.005],[93.196,23.056],[93.123,23.006],[93.146,22.928],[93.097,22.786],[93.094,22.708],[93.143,22.583],[93.132,22.472],[93.188,22.425],[93.199,22.278],[93.161,22.18],[93.051,22.201],[92.999,22.054],[92.939,22.017],[92.705,22.151],[92.688,22.04],[92.6,22.011]]]}},{"type":"Feature","properties":{"state":"Nagaland","bbox":[93.3291,25.1991,95.2345,27.0344]},"geometry":{"type":"Polygon","coordinates":[[[93.427,25.632],[93.513,25.675],[93.543,25.731],[93.702,25.852],[93.681,25.904],[93.776,25.969],[93.777,25.849],[93.881,25.844],[93.979,25.917],[93.955,25.969],[94.0,26.172],[94.104,26.32],[94.164,26.351],[94.184,26.456],[94.285,26.561],[94.314,26.461],[94.401,26.534],[94.403,26.611],[94.586,26.725],[94.736,26.75],[94.924,26.949],[94.982,26.913],[95.101,26.962],[95.196,27.034],[95.23,26.923],[95.202,26.846],[95.234,26.682],[95.062,26.45],[95.123,26.348],[95.117,26.108],[95.186,26.073],[95.126,25.987],[95.014,25.891],[95.04,25.742],[94.936,25.668],[94.808,25.493],[94.675,25.445],[94.554,25.504],[94.551,25.58],[94.488,25.605],[94.416,25.536],[94.322,25.503],[94.208,25.496],[94.19,25.548],[94.107,25.522],[94.007,25.568],[93.765,25.539],[93.805,25.463],[93.667,25.31],[93.606,25.199],[93.502,25.243],[93.47,25.306],[93.456,25.434],[93.329,25.543],[93.427,25.632]]]}},{"type":"Feature","properties":{"state":"Odisha","bbox":[81.3968,17.818,87.4845,22.5568]},"geometry":{"type":"Polygon","coordinates":[[[82.351,18.173],[82.319,18.045],[82.25,17.993],[82.168,18.053],[82.031,18.07],[81.979,18.013],[81.81,17.957],[81.617,17.824],[81.397,17.818],[81.4,17.894],[81.482,17.977],[81.53,18.24],[81.658,18.347],[81.75,18.354],[81.77,18.419],[81.911,18.57],[81.9,18.661],[82.091,18.738],[82.158,18.789],[82.177,18.903],[82.246,18.919],[82.206,19.121],[82.161,19.202],[82.189,19.428],[82.126,19.429],[82.1,19.517],[82.028,19.508],[82.065,19.791],[81.986,19.802],[81.969,19.86],[81.869,19.902],[81.845,19.952],[81.875,20.052],[81.946,20.106],[82.018,20.049],[82.07,20.057],[82.184,19.985],[82.268,19.975],[82.345,19.836],[82.446,19.91],[82.531,19.879],[82.594,19.776],[82.697,19.831],[82.718,19.989],[82.398,20.056],[82.386,20.145],[82.421,20.205],[82.4,20.341],[82.438,20.434],[82.333,20.562],[82.377,20.632],[82.339,20.874],[82.46,20.826],[82.489,20.908],[82.561,20.947],[82.639,21.089],[82.64,21.155],[82.966,21.175],[83.077,21.112],[83.192,21.139],[83.269,21.377],[83.392,21.343],[83.399,21.405],[83.337,21.501],[83.383,21.621],[83.487,21.644],[83.461,21.698],[83.591,21.825],[83.539,21.966],[83.538,22.045],[83.628,22.203],[83.863,22.344],[84.01,22.371],[84.047,22.469],[84.012,22.528],[84.111,22.477],[84.197,22.378],[84.292,22.342],[84.429,22.352],[84.535,22.428],[84.75,22.419],[84.81,22.454],[84.958,22.445],[85.07,22.491],[85.078,22.257],[85.029,22.122],[85.18,22.073],[85.238,22.01],[85.275,22.083],[85.397,22.164],[85.683,22.058],[85.749,22.074],[85.784,21.985],[85.897,21.984],[86.009,22.116],[86.032,22.19],[85.974,22.247],[86.029,22.334],[86.018,22.426],[85.963,22.485],[86.067,22.557],[86.119,22.487],[86.283,22.448],[86.359,22.349],[86.429,22.316],[86.497,22.346],[86.728,22.216],[86.838,22.098],[86.965,22.085],[87.029,22.039],[87.001,21.913],[87.101,21.864],[87.108,21.924],[87.243,21.964],[87.249,21.854],[87.283,21.803],[87.442,21.768],[87.485,21.615],[87.408,21.545],[87.22,21.535],[87.148,21.509],[86.949,21.358],[86.859,21.214],[86.853,21.094],[86.977,20.86],[86.968,20.792],[86.865,20.783],[86.806,20.735],[86.861,20.775],[87.023,20.771],[87.056,20.715],[86.789,20.535],[86.737,20.462],[86.777,20.335],[86.533,20.181],[86.37,19.982],[86.228,19.901],[85.679,19.745],[85.353,19.589],[84.981,19.317],[84.812,19.157],[84.766,19.077],[84.701,19.119],[84.623,19.086],[84.591,19.024],[84.515,19.05],[84.319,18.789],[84.224,18.8],[84.09,18.758],[84.036,18.817],[83.891,18.816],[83.793,19.018],[83.747,18.993],[83.756,18.911],[83.663,19.099],[83.608,19.097],[83.481,19.035],[83.46,18.956],[83.348,19.018],[83.317,18.974],[83.412,18.874],[83.204,18.753],[83.136,18.786],[82.999,18.609],[83.044,18.545],[83.019,18.457],[83.077,18.404],[82.969,18.361],[82.894,18.382],[82.807,18.452],[82.773,18.342],[82.587,18.277],[82.606,18.367],[82.486,18.529],[82.362,18.422],[82.383,18.368],[82.314,18.185],[82.351,18.173]]]}},{"type":"Feature","properties":{"state":"Puducherry","bbox":[75.537,10.8274,82.27,16.7375]},"geometry":{"type":"MultiPolygon","coordinates":[[[[79.849,10.827],[79.819,10.88],[79.724,10.929],[79.748,10.996],[79.851,10.985],[79.849,10.827]]],[[[75.555,11.722],[75.537,11.72],[75.542,11.739],[75.555,11.722]]],[[[79.808,11.845],[79.686,11.88],[79.785,11.96],[79.84,11.956],[79.808,11.845]]],[[[82.267,16.695],[82.2,16.721],[82.186,16.737],[82.27,16.722],[82.267,16.695]]]]}},{"type":"Feature","properties":{"state":"Punjab","bbox":[73.8794,29.5598,76.9255,32.5114]},"geometry":{"type":"Polygon","coordinates":[[[75.461,29.807],[75.346,29.696],[75.303,29.56],[75.168,29.667],[75.242,29.751],[75.191,29.844],[75.118,29.832],[74.997,29.868],[74.927,29.95],[74.812,29.993],[74.705,29.975],[74.647,29.912],[74.448,29.947],[73.895,29.974],[73.904,30.051],[73.976,30.119],[73.96,30.271],[73.879,30.36],[73.965,30.425],[73.963,30.485],[74.216,30.691],[74.366,30.893],[74.597,31.038],[74.708,31.072],[74.69,31.128],[74.511,31.133],[74.552,31.365],[74.652,31.457],[74.612,31.5],[74.503,31.74],[74.56,31.758],[74.572,31.839],[74.667,31.923],[74.806,31.963],[74.913,32.044],[75.012,32.036],[75.123,32.081],[75.175,32.067],[75.379,32.183],[75.381,32.269],[75.341,32.346],[75.513,32.308],[75.597,32.378],[75.687,32.39],[75.728,32.452],[75.837,32.511],[75.932,32.395],[75.873,32.396],[75.771,32.289],[75.638,32.252],[75.661,32.137],[75.598,32.082],[75.655,32.077],[75.91,31.95],[75.961,31.857],[75.961,31.781],[76.017,31.632],[76.121,31.498],[76.201,31.303],[76.289,31.307],[76.392,31.413],[76.432,31.326],[76.497,31.27],[76.588,31.274],[76.646,31.21],[76.624,30.999],[76.733,30.937],[76.846,30.834],[76.838,30.754],[76.71,30.761],[76.739,30.693],[76.828,30.682],[76.925,30.61],[76.898,30.445],[76.912,30.426],[76.748,30.429],[76.711,30.326],[76.562,30.242],[76.643,30.15],[76.577,30.101],[76.467,30.099],[76.41,30.145],[76.254,30.089],[76.172,29.927],[76.214,29.84],[76.098,29.81],[76.049,29.747],[75.947,29.729],[75.779,29.822],[75.58,29.74],[75.461,29.807]]]}},{"type":"Feature","properties":{"state":"Rajasthan","bbox":[69.4845,23.06,78.2712,30.1936]},"geometry":{"type":"Polygon","coordinates":[[[74.506,23.085],[74.386,23.112],[74.32,23.06],[74.248,23.184],[74.127,23.175],[74.139,23.266],[73.982,23.338],[73.959,23.38],[73.892,23.335],[73.83,23.426],[73.755,23.455],[73.627,23.449],[73.656,23.621],[73.572,23.654],[73.523,23.607],[73.474,23.705],[73.369,23.815],[73.378,23.904],[73.416,23.925],[73.405,24.042],[73.317,24.054],[73.243,24.002],[73.214,24.077],[73.125,24.125],[73.067,24.194],[73.151,24.355],[73.077,24.396],[73.087,24.498],[73.002,24.48],[72.959,24.36],[72.728,24.367],[72.684,24.464],[72.52,24.501],[72.5,24.417],[72.353,24.564],[72.335,24.633],[72.165,24.622],[72.058,24.712],[71.656,24.64],[71.609,24.677],[71.479,24.679],[71.378,24.626],[71.287,24.616],[71.112,24.675],[70.937,24.939],[70.888,25.148],[70.751,25.277],[70.665,25.397],[70.674,25.676],[70.608,25.715],[70.53,25.683],[70.387,25.673],[70.269,25.713],[70.099,25.939],[70.084,26.083],[70.14,26.156],[70.174,26.251],[70.174,26.552],[70.056,26.6],[69.887,26.579],[69.792,26.599],[69.72,26.655],[69.51,26.743],[69.484,26.805],[69.514,27.01],[69.587,27.184],[69.864,27.403],[69.934,27.498],[70.026,27.562],[70.133,27.806],[70.371,28.012],[70.507,28.037],[70.589,28.01],[70.677,27.921],[70.683,27.828],[70.758,27.722],[70.907,27.709],[71.205,27.836],[71.382,27.873],[71.667,27.878],[71.875,27.955],[71.881,27.914],[71.928,28.122],[72.206,28.394],[72.3,28.669],[72.404,28.783],[72.945,29.028],[73.005,29.153],[73.084,29.235],[73.283,29.572],[73.398,29.946],[73.806,30.067],[73.968,30.194],[73.976,30.119],[73.904,30.051],[73.895,29.974],[74.526,29.941],[74.561,29.869],[74.485,29.814],[74.48,29.745],[74.616,29.752],[74.575,29.564],[74.623,29.531],[74.584,29.458],[74.603,29.365],[74.788,29.362],[74.85,29.403],[74.938,29.362],[74.96,29.281],[75.051,29.286],[75.081,29.228],[75.346,29.283],[75.405,29.26],[75.392,29.062],[75.442,29.058],[75.528,28.971],[75.474,28.926],[75.52,28.834],[75.561,28.613],[75.623,28.602],[75.67,28.519],[75.893,28.39],[76.055,28.221],[75.999,28.123],[76.008,28.059],[75.973,27.932],[75.933,27.928],[75.971,27.852],[76.077,27.841],[76.176,27.799],[76.225,27.833],[76.169,27.903],[76.159,27.998],[76.26,28.067],[76.318,28.016],[76.36,28.125],[76.312,28.178],[76.543,28.034],[76.539,27.975],[76.669,28.013],[76.687,28.087],[76.796,28.148],[76.854,28.221],[76.97,28.138],[76.93,27.994],[76.942,27.843],[76.892,27.733],[76.977,27.654],[77.045,27.821],[77.283,27.799],[77.352,27.652],[77.34,27.527],[77.438,27.456],[77.646,27.242],[77.658,27.17],[77.551,27.111],[77.661,26.971],[77.49,26.901],[77.398,26.831],[77.455,26.743],[77.525,26.819],[77.722,26.875],[77.76,26.933],[77.987,26.889],[78.111,26.896],[78.149,26.949],[78.271,26.92],[78.222,26.832],[78.112,26.795],[78.089,26.676],[78.001,26.695],[77.904,26.659],[77.823,26.55],[77.745,26.538],[77.539,26.412],[77.438,26.403],[77.271,26.267],[77.12,26.214],[76.901,26.093],[76.788,25.944],[76.716,25.902],[76.643,25.908],[76.546,25.838],[76.503,25.671],[76.516,25.528],[76.594,25.408],[76.67,25.349],[76.762,25.32],[76.857,25.332],[76.945,25.284],[77.083,25.337],[77.224,25.319],[77.234,25.379],[77.314,25.431],[77.367,25.411],[77.412,25.224],[77.393,25.119],[77.312,25.081],[77.27,25.115],[77.175,25.111],[77.086,25.055],[77.0,25.075],[76.877,25.041],[76.861,24.961],[76.95,24.869],[76.805,24.807],[76.855,24.744],[76.947,24.759],[77.034,24.708],[77.069,24.557],[76.977,24.461],[76.861,24.549],[76.817,24.534],[76.844,24.436],[76.832,24.358],[76.863,24.272],[76.922,24.212],[76.881,24.131],[76.802,24.117],[76.676,24.191],[76.644,24.27],[76.571,24.209],[76.321,24.245],[76.118,24.194],[76.127,24.088],[76.042,24.066],[75.938,23.897],[75.794,23.867],[75.69,23.747],[75.583,23.795],[75.565,23.856],[75.462,23.918],[75.522,24.025],[75.702,23.966],[75.837,24.057],[75.751,24.143],[75.814,24.245],[75.728,24.396],[75.786,24.453],[75.901,24.443],[75.921,24.543],[75.824,24.667],[75.785,24.762],[75.609,24.682],[75.549,24.703],[75.456,24.681],[75.184,24.748],[75.337,24.953],[75.352,25.019],[75.191,25.037],[75.113,24.967],[75.116,24.877],[75.038,24.846],[74.959,24.858],[74.902,24.93],[74.826,24.899],[74.861,24.799],[74.977,24.765],[74.993,24.693],[74.889,24.634],[74.805,24.736],[74.772,24.662],[74.786,24.586],[74.697,24.483],[74.815,24.469],[74.855,24.424],[74.782,24.338],[74.754,24.242],[74.867,24.244],[74.908,24.212],[74.879,24.174],[74.974,24.04],[74.902,23.874],[74.941,23.765],[74.922,23.666],[74.847,23.552],[74.772,23.543],[74.572,23.42],[74.529,23.321],[74.734,23.221],[74.506,23.085]]]}},{"type":"Feature","properties":{"state":"Sikkim","bbox":[88.0381,27.0715,88.9189,28.0984]},"geometry":{"type":"Polygon","coordinates":[[[88.919,27.32],[88.904,27.272],[88.803,27.247],[88.792,27.186],[88.722,27.139],[88.598,27.188],[88.532,27.176],[88.425,27.071],[88.281,27.132],[88.154,27.11],[88.096,27.133],[88.038,27.22],[88.044,27.478],[88.197,27.789],[88.205,27.942],[88.468,28.017],[88.495,28.054],[88.619,28.098],[88.757,28.076],[88.844,27.993],[88.836,27.929],[88.888,27.856],[88.856,27.817],[88.849,27.668],[88.764,27.565],[88.794,27.417],[88.919,27.32]]]}},{"type":"Feature","properties":{"state":"Tamil Nadu","bbox":[76.2343,8.0765,80.3448,13.5645]},"geometry":{"type":"Polygon","coordinates":[[[77.262,8.507],[77.27,8.578],[77.17,8.742],[77.256,8.879],[77.193,8.926],[77.149,9.01],[77.268,9.153],[77.282,9.299],[77.403,9.526],[77.318,9.602],[77.27,9.572],[77.167,9.612],[77.247,9.799],[77.213,9.877],[77.263,10.029],[77.288,10.232],[77.181,10.357],[77.091,10.315],[76.982,10.22],[76.892,10.26],[76.834,10.339],[76.815,10.423],[76.838,10.596],[76.907,10.782],[76.831,10.87],[76.656,10.939],[76.754,11.079],[76.695,11.167],[76.707,11.24],[76.629,11.194],[76.442,11.201],[76.522,11.27],[76.548,11.359],[76.461,11.388],[76.234,11.527],[76.378,11.601],[76.418,11.671],[76.511,11.704],[76.56,11.622],[76.848,11.595],[76.835,11.655],[76.909,11.795],[77.013,11.814],[77.111,11.773],[77.293,11.809],[77.429,11.768],[77.494,11.944],[77.676,11.952],[77.708,12.036],[77.776,12.113],[77.747,12.155],[77.611,12.206],[77.505,12.198],[77.471,12.243],[77.551,12.292],[77.615,12.367],[77.635,12.488],[77.588,12.514],[77.601,12.668],[77.739,12.672],[77.793,12.749],[77.831,12.866],[77.929,12.891],[77.979,12.836],[78.057,12.852],[78.134,12.782],[78.231,12.76],[78.302,12.665],[78.412,12.627],[78.592,12.782],[78.621,12.991],[78.892,13.096],[78.994,13.086],[79.163,13.02],[79.235,13.105],[79.228,13.158],[79.284,13.123],[79.438,13.188],[79.406,13.335],[79.537,13.339],[79.534,13.276],[79.683,13.296],[79.703,13.222],[79.794,13.24],[79.81,13.317],[79.946,13.364],[80.037,13.538],[80.079,13.489],[80.215,13.49],[80.268,13.565],[80.326,13.445],[80.345,13.276],[80.3,13.142],[80.255,12.78],[80.138,12.411],[79.857,12.05],[79.84,11.956],[79.785,11.96],[79.686,11.88],[79.808,11.845],[79.761,11.623],[79.767,11.522],[79.813,11.424],[79.857,11.177],[79.851,10.985],[79.748,10.996],[79.724,10.929],[79.819,10.88],[79.849,10.827],[79.86,10.283],[79.768,10.272],[79.387,10.317],[79.267,10.229],[79.227,10.137],[79.251,10.051],[78.981,9.689],[78.93,9.596],[78.9,9.469],[78.984,9.359],[79.065,9.299],[79.158,9.285],[79.335,9.311],[79.303,9.245],[79.204,9.278],[78.872,9.257],[78.579,9.131],[78.424,9.117],[78.384,9.094],[78.228,8.974],[78.172,8.883],[78.161,8.805],[78.195,8.752],[78.138,8.68],[78.143,8.501],[78.057,8.379],[77.841,8.251],[77.794,8.163],[77.589,8.14],[77.556,8.077],[77.445,8.094],[77.233,8.181],[77.098,8.292],[77.262,8.507]]]}},{"type":"Feature","properties":{"state":"Telangana","bbox":[77.242,15.8411,81.3097,19.9118]},"geometry":{"type":"Polygon","coordinates":[[[77.288,16.409],[77.242,16.474],[77.416,16.518],[77.453,16.616],[77.426,16.721],[77.476,16.788],[77.459,16.885],[77.497,17.043],[77.464,17.11],[77.364,17.158],[77.38,17.223],[77.484,17.355],[77.513,17.43],[77.686,17.511],[77.444,17.584],[77.453,17.694],[77.537,17.78],[77.586,17.907],[77.656,17.969],[77.548,18.056],[77.598,18.093],[77.563,18.196],[77.601,18.276],[77.551,18.292],[77.525,18.372],[77.585,18.446],[77.597,18.549],[77.739,18.556],[77.73,18.666],[77.788,18.683],[77.84,18.805],[77.949,18.844],[77.843,18.908],[77.797,19.073],[77.86,19.18],[77.863,19.304],[77.944,19.343],[78.042,19.271],[78.175,19.238],[78.212,19.428],[78.309,19.481],[78.306,19.607],[78.276,19.692],[78.343,19.714],[78.364,19.781],[78.306,19.912],[78.381,19.88],[78.432,19.814],[78.575,19.818],[78.842,19.762],[78.86,19.689],[78.956,19.656],[78.936,19.55],[79.097,19.532],[79.19,19.459],[79.253,19.593],[79.366,19.576],[79.472,19.501],[79.744,19.609],[79.944,19.47],[79.978,19.399],[79.929,19.158],[79.858,19.102],[79.94,19.035],[79.961,18.866],[79.914,18.826],[80.019,18.771],[80.118,18.68],[80.276,18.72],[80.372,18.611],[80.455,18.631],[80.637,18.523],[80.706,18.439],[80.748,18.309],[80.756,18.17],[80.852,18.206],[80.866,18.14],[80.979,18.166],[80.97,18.048],[81.016,17.795],[81.085,17.797],[81.059,17.733],[80.973,17.78],[80.886,17.736],[80.911,17.638],[81.021,17.52],[81.31,17.41],[81.275,17.318],[81.19,17.324],[81.174,17.231],[80.995,17.191],[80.941,17.219],[80.88,17.161],[80.877,17.07],[80.845,17.04],[80.7,17.084],[80.58,17.153],[80.505,17.069],[80.363,16.977],[80.534,16.962],[80.602,16.919],[80.563,16.832],[80.57,16.768],[80.322,16.879],[80.307,16.974],[80.187,17.021],[80.056,16.971],[80.039,16.918],[80.073,16.817],[80.056,16.744],[79.949,16.636],[79.877,16.698],[79.793,16.725],[79.447,16.619],[79.418,16.581],[79.258,16.566],[79.219,16.512],[79.215,16.226],[79.158,16.21],[79.03,16.241],[78.904,16.183],[78.923,16.123],[78.741,16.009],[78.601,16.084],[78.551,16.043],[78.41,16.075],[78.256,16.009],[78.175,15.858],[78.083,15.841],[77.887,15.906],[77.803,15.874],[77.66,15.885],[77.514,15.928],[77.5,16.222],[77.594,16.343],[77.49,16.386],[77.415,16.368],[77.288,16.409]]]}},{"type":"Feature","properties":{"state":"Tripura","bbox":[91.1561,22.9651,92.3305,24.5255]},"geometry":{"type":"Polygon","coordinates":[[[91.759,23.266],[91.815,23.145],[91.806,23.063],[91.72,22.987],[91.577,22.965],[91.543,22.999],[91.508,23.184],[91.454,23.261],[91.32,23.277],[91.256,23.486],[91.161,23.595],[91.156,23.742],[91.226,23.732],[91.248,23.83],[91.219,23.879],[91.3,23.998],[91.373,24.002],[91.47,24.062],[91.63,24.103],[91.656,24.186],[91.756,24.142],[91.746,24.245],[91.86,24.183],[91.924,24.109],[91.942,24.263],[91.922,24.338],[91.971,24.382],[92.071,24.377],[92.139,24.425],[92.156,24.525],[92.214,24.509],[92.26,24.359],[92.219,24.286],[92.295,24.245],[92.331,24.183],[92.312,24.053],[92.324,23.914],[92.257,23.813],[92.265,23.727],[92.176,23.707],[92.12,23.732],[92.06,23.643],[91.938,23.69],[91.974,23.481],[91.942,23.427],[91.866,23.446],[91.804,23.515],[91.838,23.371],[91.759,23.266]]]}},{"type":"Feature","properties":{"state":"Uttar Pradesh","bbox":[77.1059,23.8711,84.625,30.4012]},"geometry":{"type":"Polygon","coordinates":[[[78.751,24.6],[78.883,24.641],[78.953,24.547],[78.915,24.459],[78.985,24.442],[78.991,24.417],[78.972,24.348],[78.806,24.179],[78.702,24.227],[78.586,24.354],[78.502,24.391],[78.389,24.263],[78.329,24.327],[78.369,24.374],[78.268,24.45],[78.276,24.663],[78.172,24.876],[78.346,25.012],[78.337,25.085],[78.447,25.122],[78.345,25.328],[78.34,25.433],[78.355,25.452],[78.395,25.444],[78.452,25.572],[78.658,25.559],[78.718,25.605],[78.811,25.62],[78.764,25.72],[78.886,25.913],[78.938,25.952],[78.949,26.028],[79.011,26.083],[78.994,26.197],[79.138,26.339],[79.135,26.44],[78.99,26.579],[79.007,26.671],[78.872,26.698],[78.78,26.769],[78.545,26.764],[78.395,26.817],[78.358,26.869],[78.222,26.832],[78.271,26.92],[78.149,26.949],[78.111,26.896],[77.987,26.889],[77.76,26.933],[77.722,26.875],[77.525,26.819],[77.455,26.743],[77.398,26.831],[77.49,26.901],[77.661,26.971],[77.551,27.111],[77.658,27.17],[77.646,27.242],[77.438,27.456],[77.34,27.527],[77.352,27.652],[77.283,27.799],[77.344,27.85],[77.421,27.855],[77.53,27.927],[77.542,27.99],[77.476,28.085],[77.505,28.371],[77.297,28.567],[77.341,28.61],[77.299,28.709],[77.208,28.791],[77.233,28.919],[77.167,29.033],[77.143,29.167],[77.155,29.297],[77.127,29.349],[77.106,29.633],[77.152,29.688],[77.12,29.755],[77.173,29.805],[77.227,29.939],[77.583,30.308],[77.575,30.401],[77.658,30.401],[77.722,30.33],[77.959,30.242],[77.86,30.114],[77.802,30.096],[77.716,29.886],[77.82,29.674],[77.927,29.714],[78.02,29.582],[78.13,29.652],[78.204,29.737],[78.335,29.798],[78.511,29.725],[78.533,29.64],[78.617,29.558],[78.8,29.465],[78.926,29.439],[78.761,29.264],[78.875,29.205],[78.927,29.119],[79.036,29.169],[79.154,29.116],[79.143,29.068],[79.259,28.992],[79.407,28.952],[79.423,28.897],[79.585,28.846],[79.82,28.888],[79.955,28.723],[80.03,28.749],[80.065,28.837],[80.12,28.827],[80.277,28.712],[80.314,28.629],[80.459,28.625],[80.553,28.691],[80.667,28.643],[80.715,28.569],[81.053,28.405],[81.213,28.358],[81.233,28.29],[81.32,28.197],[81.426,28.171],[81.478,28.083],[81.885,27.856],[81.961,27.924],[82.07,27.924],[82.122,27.866],[82.207,27.844],[82.449,27.679],[82.665,27.723],[82.706,27.704],[82.753,27.587],[82.732,27.487],[82.929,27.5],[83.035,27.448],[83.189,27.454],[83.292,27.335],[83.343,27.335],[83.409,27.414],[83.395,27.48],[83.614,27.469],[83.831,27.37],[83.993,27.175],[83.964,27.084],[84.05,27.044],[84.061,26.887],[84.259,26.805],[84.33,26.684],[84.419,26.632],[84.281,26.6],[84.113,26.63],[84.052,26.552],[83.915,26.502],[83.908,26.447],[84.157,26.376],[84.177,26.265],[84.087,26.219],[84.056,26.1],[84.296,25.946],[84.354,25.959],[84.625,25.792],[84.6,25.732],[84.558,25.68],[84.336,25.743],[84.319,25.668],[84.206,25.669],[84.14,25.731],[84.074,25.695],[84.081,25.636],[83.931,25.558],[83.847,25.434],[83.779,25.398],[83.741,25.411],[83.649,25.339],[83.538,25.309],[83.35,25.184],[83.351,25.009],[83.395,24.781],[83.489,24.736],[83.53,24.644],[83.524,24.55],[83.4,24.498],[83.38,24.314],[83.409,24.267],[83.33,24.102],[83.207,23.922],[83.091,23.871],[82.947,23.871],[82.813,23.962],[82.665,24.128],[82.744,24.165],[82.77,24.37],[82.713,24.38],[82.744,24.497],[82.798,24.576],[82.773,24.642],[82.707,24.637],[82.671,24.697],[82.418,24.652],[82.418,24.594],[82.298,24.607],[82.216,24.794],[81.943,24.846],[81.892,24.989],[81.793,25.004],[81.668,25.062],[81.626,25.161],[81.541,25.188],[81.499,25.148],[81.392,25.132],[81.278,25.166],[81.264,25.053],[81.16,24.913],[81.12,24.904],[81.034,24.953],[80.946,24.967],[80.86,24.928],[80.831,25.033],[80.878,25.066],[80.845,25.187],[80.724,25.118],[80.715,25.066],[80.592,25.09],[80.501,25.041],[80.478,24.976],[80.401,25.07],[80.342,25.013],[80.264,25.024],[80.43,25.174],[80.404,25.243],[80.311,25.286],[80.316,25.389],[80.221,25.397],[80.033,25.342],[79.855,25.194],[79.84,25.099],[79.748,25.14],[79.673,25.121],[79.569,25.172],[79.491,25.079],[79.406,25.107],[79.391,25.17],[79.436,25.254],[79.352,25.33],[79.28,25.324],[79.264,25.273],[79.323,25.15],[79.245,25.114],[79.131,25.11],[79.063,25.222],[78.93,25.207],[78.88,25.158],[78.871,25.187],[78.961,25.345],[78.88,25.386],[78.942,25.492],[78.884,25.515],[78.731,25.458],[78.774,25.353],[78.66,25.383],[78.513,25.276],[78.64,25.071],[78.632,24.957],[78.676,24.898],[78.77,24.86],[78.78,24.706],[78.751,24.6]]]}},{"type":"Feature","properties":{"state":"Uttarakhand","bbox":[77.5754,28.7226,81.0451,31.4556]},"geometry":{"type":"Polygon","coordinates":[[[78.533,29.64],[78.511,29.725],[78.335,29.798],[78.204,29.737],[78.13,29.652],[78.02,29.582],[77.927,29.714],[77.82,29.674],[77.716,29.886],[77.802,30.096],[77.86,30.114],[77.959,30.242],[77.722,30.33],[77.658,30.401],[77.575,30.401],[77.815,30.506],[77.819,30.561],[77.704,30.764],[77.806,30.853],[77.829,31.029],[77.864,31.109],[77.967,31.174],[78.247,31.23],[78.311,31.284],[78.371,31.286],[78.484,31.199],[78.609,31.229],[78.672,31.197],[78.809,31.199],[78.886,31.098],[79.008,31.111],[78.985,31.174],[78.881,31.284],[78.944,31.366],[79.007,31.379],[79.072,31.456],[79.138,31.434],[79.167,31.361],[79.233,31.333],[79.222,31.26],[79.296,31.218],[79.319,31.135],[79.507,31.032],[79.602,30.933],[79.732,30.979],[79.865,30.973],[79.889,30.918],[80.054,30.844],[80.102,30.789],[80.173,30.808],[80.25,30.745],[80.213,30.584],[80.418,30.525],[80.54,30.448],[80.608,30.471],[80.709,30.418],[80.804,30.324],[80.999,30.268],[81.045,30.21],[80.929,30.174],[80.675,29.957],[80.602,29.957],[80.554,29.85],[80.435,29.805],[80.366,29.74],[80.409,29.596],[80.342,29.51],[80.242,29.444],[80.319,29.301],[80.259,29.187],[80.144,29.102],[80.118,28.981],[80.074,28.941],[80.03,28.749],[79.955,28.723],[79.82,28.888],[79.585,28.846],[79.423,28.897],[79.407,28.952],[79.259,28.992],[79.143,29.068],[79.154,29.116],[79.036,29.169],[78.927,29.119],[78.875,29.205],[78.761,29.264],[78.926,29.439],[78.8,29.465],[78.617,29.558],[78.533,29.64]]]}},{"type":"Feature","properties":{"state":"West Bengal","bbox":[85.8193,21.556,89.8701,27.22]},"geometry":{"type":"MultiPolygon","coordinates":[[[[88.125,21.674],[88.032,21.688],[88.104,21.842],[88.167,21.823],[88.171,21.737],[88.125,21.674]]],[[[88.186,22.105],[88.064,22.018],[87.956,21.831],[87.789,21.699],[87.674,21.651],[87.485,21.615],[87.442,21.768],[87.283,21.803],[87.249,21.854],[87.243,21.964],[87.108,21.924],[87.101,21.864],[87.001,21.913],[87.029,22.039],[86.965,22.085],[86.838,22.098],[86.728,22.216],[86.833,22.326],[86.845,22.4],[86.764,22.426],[86.801,22.488],[86.766,22.576],[86.659,22.576],[86.642,22.657],[86.419,22.791],[86.436,22.927],[86.501,22.994],[86.241,22.997],[86.044,23.145],[85.885,23.167],[85.819,23.269],[85.883,23.35],[85.859,23.43],[85.885,23.483],[86.039,23.499],[86.082,23.566],[86.159,23.559],[86.177,23.47],[86.31,23.412],[86.365,23.532],[86.486,23.636],[86.712,23.699],[86.801,23.699],[86.827,23.765],[86.801,23.834],[86.916,23.882],[87.085,23.812],[87.13,23.853],[87.234,23.856],[87.295,23.901],[87.234,24.025],[87.336,24.035],[87.44,23.982],[87.631,24.164],[87.639,24.255],[87.706,24.26],[87.801,24.382],[87.793,24.583],[87.89,24.565],[87.908,24.722],[87.839,24.745],[87.891,24.855],[87.96,24.921],[87.954,24.974],[87.795,25.088],[87.778,25.25],[87.711,25.258],[87.763,25.265],[87.818,25.242],[87.847,25.298],[87.784,25.341],[87.767,25.416],[87.867,25.497],[87.96,25.539],[88.067,25.484],[88.021,25.596],[88.05,25.701],[87.968,25.726],[87.893,25.866],[87.827,25.891],[87.822,25.936],[87.85,26.039],[87.975,26.144],[88.073,26.175],[88.147,26.251],[88.28,26.331],[88.24,26.458],[88.11,26.548],[88.16,26.637],[88.186,26.772],[88.121,26.951],[87.992,27.109],[88.038,27.22],[88.096,27.133],[88.154,27.11],[88.281,27.132],[88.425,27.071],[88.532,27.176],[88.598,27.188],[88.865,27.109],[88.868,26.966],[88.92,26.995],[89.089,26.889],[89.09,26.841],[89.128,26.806],[89.255,26.808],[89.375,26.854],[89.454,26.798],[89.547,26.813],[89.763,26.699],[89.852,26.698],[89.87,26.614],[89.843,26.383],[89.781,26.352],[89.7,26.218],[89.729,26.171],[89.635,26.229],[89.609,26.153],[89.65,26.064],[89.541,26.006],[89.349,26.01],[89.229,26.124],[89.154,26.139],[89.096,26.391],[88.983,26.447],[88.91,26.38],[88.986,26.35],[88.927,26.284],[88.76,26.329],[88.42,26.563],[88.401,26.644],[88.333,26.497],[88.485,26.461],[88.515,26.365],[88.402,26.331],[88.352,26.222],[88.179,26.149],[88.093,25.93],[88.101,25.83],[88.144,25.794],[88.267,25.782],[88.454,25.664],[88.446,25.595],[88.647,25.478],[88.812,25.524],[88.839,25.364],[88.988,25.273],[88.91,25.18],[88.436,25.2],[88.453,25.079],[88.394,24.969],[88.278,24.89],[88.226,24.96],[88.141,24.915],[88.174,24.861],[88.069,24.77],[88.027,24.69],[88.133,24.51],[88.335,24.443],[88.382,24.396],[88.56,24.308],[88.683,24.325],[88.742,24.255],[88.746,24.147],[88.7,24.097],[88.743,24.035],[88.732,23.911],[88.607,23.861],[88.564,23.713],[88.593,23.617],[88.723,23.512],[88.763,23.446],[88.709,23.232],[88.81,23.255],[88.942,23.206],[88.858,22.968],[88.969,22.844],[88.913,22.758],[88.963,22.693],[88.927,22.65],[89.0,22.429],[88.995,22.287],[89.066,22.208],[89.069,21.949],[89.008,21.902],[88.933,21.942],[88.853,21.923],[88.763,21.955],[88.763,22.015],[88.633,21.955],[88.532,21.853],[88.445,21.918],[88.391,21.897],[88.359,21.805],[88.267,21.728],[88.303,21.67],[88.26,21.556],[88.212,21.783],[88.145,21.955],[88.208,22.026],[88.219,22.103],[88.183,22.187],[88.082,22.261],[87.998,22.245],[88.015,22.202],[88.136,22.186],[88.186,22.105]]],[[[89.038,21.611],[89.015,21.779],[89.093,21.652],[89.038,21.611]]],[[[88.777,21.868],[88.809,21.669],[88.746,21.662],[88.691,21.751],[88.716,21.905],[88.777,21.868]]],[[[88.948,21.769],[88.821,21.927],[88.882,21.913],[88.943,21.915],[88.948,21.769]]]]}}]}